{
  "type": "FeatureCollection",
  "features": [
    {
      "type": "Feature",
      "geometry": {
        "type": "Point",
        "coordinates": [
          -6709039.509979715,
          6599600.153922984
        ]
      },
      "properties": {
        "id": "10",
        "zone_id": "10",
        "row": 498,
        "col": 269,
        "accumulation": 30723.0
      }
    },
    {
      "type": "Feature",
      "geometry": {
        "type": "Point",
        "coordinates": [
          -6706786.928937629,
          6604668.461267677
        ]
      },
      "properties": {
        "id": "20",
        "zone_id": "20",
        "row": 453,
        "col": 289,
        "accumulation": 61327.0
      }
    },
    {
      "type": "Feature",
      "geometry": {
        "type": "Point",
        "coordinates": [
          -6704309.089791334,
          6624153.287281719
        ]
      },
      "properties": {
        "id": "30",
        "zone_id": "30",
        "row": 280,
        "col": 311,
        "accumulation": 92232.0
      }
    },
    {
      "type": "Feature",
      "geometry": {
        "type": "Point",
        "coordinates": [
          -6705435.380312377,
          6619084.979937026
        ]
      },
      "properties": {
        "id": "31",
        "zone_id": "31",
        "row": 325,
        "col": 301,
        "accumulation": 11877.0
      }
    },
    {
      "type": "Feature",
      "geometry": {
        "type": "Point",
        "coordinates": [
          -6707237.445146046,
          6602528.509277696
        ]
      },
      "properties": {
        "id": "21",
        "zone_id": "21",
        "row": 472,
        "col": 285,
        "accumulation": 13949.0
      }
    },
    {
      "type": "Feature",
      "geometry": {
        "type": "Point",
        "coordinates": [
          -6713263.099433625,
          6591885.06385384
        ]
      },
      "properties": {
        "id": "11",
        "zone_id": "11",
        "row": 566,
        "col": 231,
        "accumulation": 22344.0
      }
    }
  ]
}