{
  "type": "FeatureCollection",
  "features": [
    {
      "type": "Feature",
      "geometry": {
        "type": "Polygon",
        "coordinates": [
          [
            [
              -6728749.594097964,
              6653549.4698809385
            ],
            [
              -6683697.97325625,
              6653549.4698809385
            ],
            [
              -6683697.97325625,
              6567050.357864845
            ],
            [
              -6728749.594097964,
              6567050.357864845
            ],
            [
              -6728749.594097964,
              6653549.4698809385
            ]
          ]
        ]
      },
      "properties": {
        "id": "T1",
        "area_km2": 1559.5692531904438,
        "downstream": null
      }
    },
    {
      "type": "Feature",
      "geometry": {
        "type": "Polygon",
        "coordinates": [
          [
            [
              -6728749.594097964,
              6648255.904432037
            ],
            [
              -6683697.97325625,
              6648255.904432037
            ],
            [
              -6683697.97325625,
              6567050.357864845
            ],
            [
              -6728749.594097964,
              6567050.357864845
            ],
            [
              -6728749.594097964,
              6648255.904432037
            ]
          ]
        ]
      },
      "properties": {
        "id": "T2",
        "area_km2": 1542.114275742439,
        "downstream": null
      }
    },
    {
      "type": "Feature",
      "geometry": {
        "type": "Polygon",
        "coordinates": [
          [
            [
              -6728749.594097964,
              6642624.451826822
            ],
            [
              -6683697.97325625,
              6642624.451826822
            ],
            [
              -6683697.97325625,
              6567050.357864845
            ],
            [
              -6728749.594097964,
              6567050.357864845
            ],
            [
              -6728749.594097964,
              6642624.451826822
            ]
          ]
        ]
      },
      "properties": {
        "id": "T3",
        "area_km2": 1493.8593816928676,
        "downstream": null
      }
    }
  ]
}