{
  "type": "FeatureCollection",
  "features": [
    {
      "type": "Feature",
      "geometry": {
        "type": "Point",
        "coordinates": [
          -6696119.740481501,
          6635686.949550128
        ]
      },
      "properties": {
        "id": "station_01"
      }
    },
    {
      "type": "Feature",
      "geometry": {
        "type": "Point",
        "coordinates": [
          -6701112.562930146,
          6638770.304078668
        ]
      },
      "properties": {
        "id": "station_02"
      }
    },
    {
      "type": "Feature",
      "geometry": {
        "type": "Point",
        "coordinates": [
          -6709646.516692231,
          6588733.712712907
        ]
      },
      "properties": {
        "id": "station_03"
      }
    },
    {
      "type": "Feature",
      "geometry": {
        "type": "Point",
        "coordinates": [
          -6696249.674041387,
          6599428.549170913
        ]
      },
      "properties": {
        "id": "station_04"
      }
    },
    {
      "type": "Feature",
      "geometry": {
        "type": "Point",
        "coordinates": [
          -6714652.71832555,
          6600767.322111265
        ]
      },
      "properties": {
        "id": "station_05"
      }
    },
    {
      "type": "Feature",
      "geometry": {
        "type": "Point",
        "coordinates": [
          -6708533.569390683,
          6585560.450825877
        ]
      },
      "properties": {
        "id": "station_06"
      }
    },
    {
      "type": "Feature",
      "geometry": {
        "type": "Point",
        "coordinates": [
          -6693091.8888952825,
          6637258.151740371
        ]
      },
      "properties": {
        "id": "station_07"
      }
    },
    {
      "type": "Feature",
      "geometry": {
        "type": "Point",
        "coordinates": [
          -6712027.91607323,
          6593866.520359598
        ]
      },
      "properties": {
        "id": "station_08"
      }
    },
    {
      "type": "Feature",
      "geometry": {
        "type": "Point",
        "coordinates": [
          -6698502.77910495,
          6635238.673016114
        ]
      },
      "properties": {
        "id": "station_09"
      }
    },
    {
      "type": "Feature",
      "geometry": {
        "type": "Point",
        "coordinates": [
          -6708986.555949402,
          6617427.185280697
        ]
      },
      "properties": {
        "id": "station_10"
      }
    }
  ]
}