{"type": "FeatureCollection", "features": [{"type": "Feature", "geometry": {"type": "Polygon", "coordinates": [[[-70.69034455173319, 42.27566403906736], [-70.69099274370286, 42.27639220959411], [-70.6916577718976, 42.277112034835014], [-70.69216660821724, 42.27764241071308], [-70.69346827065719, 42.276778438739484], [-70.69381370522329, 42.2764527597608], [-70.69410695036632, 42.27620140752814], [-70.69417142604752, 42.27612520870701], [-70.6941655645403, 42.27608417904571], [-70.69411867338077, 42.275925921245545], [-70.69408936584463, 42.27578524576081], [-70.69406592071402, 42.275621126069964], [-70.6940424746851, 42.27549803668599], [-70.69392524543885, 42.2754511447958], [-70.69375526532248, 42.27540425420016], [-70.69354425375718, 42.27538667005159], [-70.69333910369912, 42.275369085233464], [-70.69328635103237, 42.27532805507988], [-70.69317498419167, 42.27533391691183], [-70.69308120187262, 42.27533977807859], [-70.69298741865526, 42.27529874790588], [-70.69281157613335, 42.27524599602191], [-70.69271779381432, 42.275187381584004], [-70.69259470395916, 42.27511118220155], [-70.69247161320565, 42.27498809248629], [-70.69241299993, 42.27488844869807], [-70.6921199272635, 42.27457779391475], [-70.6920554524806, 42.274425396906985], [-70.69201442193001, 42.274337474749615], [-70.69199683830664, 42.27424369253084], [-70.69200856042278, 42.274138186287765], [-70.6920320064517, 42.273962343707794], [-70.6921199272635, 42.27380408523221], [-70.69221371048084, 42.273675134301875], [-70.69230749279988, 42.27356962910109], [-70.69249505923457, 42.273423093659325], [-70.6926943477854, 42.273294141284765], [-70.69303430981479, 42.27318863611091], [-70.6939955835256, 42.27310657692613], [-70.69427106987378, 42.273071408006686], [-70.69475170628003, 42.27301279354048], [-70.69590054552721, 42.272877980925436], [-70.69610569558527, 42.27284867327681], [-70.69620534030986, 42.27283108907992], [-70.69654530323756, 42.272860396072], [-70.69754760480402, 42.27280178140954], [-70.69780550842714, 42.27276075224339], [-70.69799307396352, 42.27270213815295], [-70.69823339216663, 42.27261421691512], [-70.69847371036975, 42.27257318696215], [-70.69872575158733, 42.272502849173094], [-70.69900710034108, 42.27247354201476], [-70.69921811100804, 42.2725380184098], [-70.69937636900828, 42.272666969007815], [-70.6994642916167, 42.272872118864996], [-70.69955807393573, 42.27313588246073], [-70.69958151906634, 42.273358617505004], [-70.69960496509526, 42.27349342975675], [-70.69961668810971, 42.27365754967085], [-70.69961082660248, 42.273686856943335], [-70.69962841112417, 42.27372202551937], [-70.69969874741429, 42.273739610132345], [-70.69976322399381, 42.27376305605382], [-70.6997866691244, 42.27380408523221], [-70.69983942268948, 42.27383339243655], [-70.70005043335644, 42.273821669157634], [-70.70207848611155, 42.27370444090142], [-70.70243017115538, 42.27367513363716], [-70.70329766254717, 42.273387924251786], [-70.70377829895342, 42.27333517143307], [-70.70412412338834, 42.273276557876876], [-70.70441133275098, 42.27322966566324], [-70.70451683808447, 42.273200358842864], [-70.70459303678014, 42.27315346723726], [-70.70482163196881, 42.27312416104617], [-70.70523779359216, 42.27322380430023], [-70.70565981492611, 42.27336447819075], [-70.70605839202778, 42.2735227371055], [-70.70656833597018, 42.273727886835985], [-70.70668556431812, 42.27375719407576], [-70.7067910696516, 42.27377477867894], [-70.70692002191232, 42.27378650130186], [-70.70706655779642, 42.273821669157634], [-70.70719550826051, 42.273856837658435], [-70.70728929057954, 42.2738802835363], [-70.70734790565182, 42.27393889852516], [-70.70741238133303, 42.27399165017379], [-70.70750030214484, 42.274020957955635], [-70.70759408446386, 42.274061987630766], [-70.7076878676812, 42.27409715666218], [-70.70771717521737, 42.2741323243446], [-70.70772303672459, 42.27422024612346], [-70.70776406637687, 42.274419534990535], [-70.70778165000024, 42.274501594459906], [-70.70781681904361, 42.27458365448708], [-70.70786957260869, 42.27464226815709], [-70.70799266156554, 42.27470674432761], [-70.70873706220382, 42.27483569514127], [-70.70953421640718, 42.275017399804696], [-70.71023758649486, 42.27520496512349], [-70.71042515203123, 42.275193242099704], [-70.7106713326399, 42.27518738091936], [-70.71096440350976, 42.27511118153685], [-70.71118713808951, 42.27505842949584], [-70.71238872910513, 42.27481811083411], [-70.71356687499014, 42.27466571374276], [-70.71381891710602, 42.27458951572361], [-70.71399475962795, 42.27450159379521], [-70.71421749330939, 42.27429644392441], [-70.71431713803396, 42.27414404690103], [-70.71442850487469, 42.273892006139604], [-70.71450470267204, 42.27362238039414], [-70.71449298055587, 42.27342895433909], [-70.71448125754144, 42.273288279927755], [-70.7143698898024, 42.27298348528987], [-70.71426438446892, 42.272713860310716], [-70.71419404728049, 42.27257318629748], [-70.71411784948315, 42.27240906688321], [-70.71410612646868, 42.272350451801024], [-70.71406509591807, 42.27226839285437], [-70.71384822284554, 42.27198704385486], [-70.713385170961, 42.27157674435826], [-70.71321518904799, 42.27136573273734], [-70.71317416029402, 42.27131298088502], [-70.71307451556943, 42.27117230573931], [-70.71276386017789, 42.2707209764277], [-70.71265249333716, 42.27056858006512], [-70.71256457162706, 42.27043376753996], [-70.71254112559815, 42.27035170676269], [-70.71250009684415, 42.27024034034085], [-70.71251768046753, 42.270193448527294], [-70.71257043313427, 42.27017000260739], [-70.71275799867065, 42.27014069635858], [-70.71296314872872, 42.27017000260739], [-70.71310382310558, 42.27014655800825], [-70.71326794261303, 42.270087943480966], [-70.7141764627588, 42.269501801192945], [-70.71436402829518, 42.26936698771567], [-70.71441092035299, 42.269349403212246], [-70.7144988411648, 42.26915597733886], [-70.71457503986045, 42.26912080887404], [-70.7146688221795, 42.26915597733886], [-70.71473915936792, 42.269132531697814], [-70.71487983374479, 42.269079778641235], [-70.71506153777393, 42.26912080887404], [-70.71525496481755, 42.269255620883555], [-70.71543080733947, 42.26936112665826], [-70.71559492774524, 42.26941974119665], [-70.71580593931053, 42.26953696878044], [-70.7160990101804, 42.2696073065556], [-70.71621623852835, 42.2696190292889], [-70.71642725009364, 42.26958386041767], [-70.71669101342736, 42.26957213767784], [-70.71686685594929, 42.26951938498915], [-70.71695477765941, 42.26953110773884], [-70.71713062018134, 42.2696073065556], [-70.71734163174662, 42.26970695005161], [-70.71747644371794, 42.26973625783158], [-70.71755264241361, 42.26974798054089], [-70.71766400925432, 42.26976556493317], [-70.71772848583383, 42.269783149320546], [-70.71775779336998, 42.269806595384345], [-70.71781640664564, 42.269800733703015], [-70.71789846684854, 42.26973625783158], [-70.71802741821094, 42.26959558382012], [-70.71813878505165, 42.26956041493582], [-70.71822084525454, 42.26951938432445], [-70.71825015279069, 42.269501801192945], [-70.71836738024032, 42.26947835568058], [-70.71843771832707, 42.269490078437855], [-70.7185139161244, 42.26956627597475], [-70.71859011482006, 42.26957213767784], [-70.71865459050127, 42.26957213767784], [-70.71873078919693, 42.26954869219163], [-70.71880112548705, 42.26951938432445], [-70.71885387905212, 42.269484216727086], [-70.71888904719717, 42.269495940148026], [-70.71895938348729, 42.269495940148026], [-70.71903558308126, 42.269513523281155], [-70.71914694992198, 42.26951938432445], [-70.71919970258871, 42.269513523281155], [-70.71934623847282, 42.26947249396872], [-70.71944588229907, 42.26942560224865], [-70.71950449647304, 42.269396294989], [-70.71958069516869, 42.269361125993505], [-70.71959827879208, 42.26930251273007], [-70.71958655667594, 42.269232175279576], [-70.71954552702364, 42.269167700156096], [-70.71952208099474, 42.269109085383285], [-70.71950449647304, 42.26903288662902], [-70.71955725003811, 42.26888635127574], [-70.71963930934268, 42.26878670714731], [-70.71969206200943, 42.268698785765814], [-70.71978584432846, 42.26855225030063], [-70.71979756734292, 42.26851122102727], [-70.71976239829954, 42.26845846745073], [-70.71973895406724, 42.26838813038793], [-70.71975067708172, 42.26835882264593], [-70.71976239829954, 42.26830020911529], [-70.71975653858895, 42.26821814888422], [-70.71975067708172, 42.268159535222786], [-70.71976825980678, 42.268118505029044], [-70.71980342885014, 42.26807747480861], [-70.71988548905303, 42.268048167586926], [-70.71996168685038, 42.2680364445615], [-70.72003788644435, 42.26807747480861], [-70.72009649972001, 42.26815367405305], [-70.7201375302706, 42.268212287719955], [-70.72019614444459, 42.26824745602687], [-70.72023717499519, 42.268282624978944], [-70.7203075112853, 42.26831193209166], [-70.7203892193486, 42.26829270733986], [-70.72038957148818, 42.268288486136676], [-70.72038370998096, 42.26824745602687], [-70.72033681882145, 42.268212287719955], [-70.72029578827085, 42.26814195104725], [-70.72033095731422, 42.268065751788626], [-70.72039543299542, 42.2680364445615], [-70.72043060114048, 42.26798955376743], [-70.72042473963326, 42.26790749379674], [-70.72042473963326, 42.26785474170928], [-70.72040129450265, 42.26774923540755], [-70.7204071560099, 42.26762028405532], [-70.72043646264771, 42.267544085495615], [-70.72062402818408, 42.267409272484805], [-70.72075297954649, 42.267315490593525], [-70.72082331673492, 42.267251014174384], [-70.72085262427106, 42.26720998405409], [-70.72086434728553, 42.2671689552366], [-70.72085262427106, 42.26710447866759], [-70.72085262427106, 42.267086893532976], [-70.72086434728553, 42.266993112491654], [-70.72088779241611, 42.2660142548645], [-70.72068850386529, 42.26436133381265], [-70.72070022687976, 42.26424410458161], [-70.72071781140143, 42.264038955229545], [-70.72078228618432, 42.26388069710076], [-70.72084090125661, 42.2637048544911], [-70.7209288220684, 42.26355245712169], [-70.7209874362424, 42.263411783271565], [-70.7210519128219, 42.263183187346336], [-70.72106949644528, 42.26301906741675], [-70.72113397212647, 42.26272599699832], [-70.72122775534383, 42.26244464795545], [-70.72130395314116, 42.262274666381536], [-70.72136842882237, 42.26218088416507], [-70.72147393415585, 42.26211054674636], [-70.72164391606887, 42.26199331864882], [-70.72166736119947, 42.261940565601385], [-70.72166149969225, 42.261899536013864], [-70.72161460853272, 42.26186436748976], [-70.72149738018479, 42.26180575257458], [-70.72136256731514, 42.26172955496486], [-70.72130395314116, 42.26165335593338], [-70.72123361685105, 42.2615537123391], [-70.72113983273539, 42.261395453955494], [-70.72105777343081, 42.26127822585809], [-70.72104605041635, 42.261196165129434], [-70.72102260528577, 42.261084798489], [-70.72104605041635, 42.26093826327605], [-70.72107535795251, 42.26085034092105], [-70.72115155574986, 42.260785865202976], [-70.72125706108334, 42.26073897433466], [-70.72123361685105, 42.26067449850271], [-70.72116914027154, 42.26055140918288], [-70.72089365392335, 42.260287645450624], [-70.72084676186553, 42.260188000362895], [-70.72079400919877, 42.26008249519213], [-70.72075884015541, 42.259941821578124], [-70.72071781140143, 42.25984217660876], [-70.72075297864819, 42.25977183990532], [-70.72075297864819, 42.25971908699386], [-70.7207353950248, 42.25968977987561], [-70.72065919632915, 42.25962530430049], [-70.72050679983614, 42.259543244080085], [-70.72042473873495, 42.25942015454648], [-70.72037784847373, 42.259215004789894], [-70.72040129450265, 42.25895124078622], [-70.72048335380723, 42.25860541689782], [-70.72052438345952, 42.25834751375596], [-70.7205829976335, 42.25815994813919], [-70.72071781050312, 42.25801927422536], [-70.72082917734384, 42.25793135311913], [-70.72095226719901, 42.25785515415173], [-70.7210108822713, 42.25781412523013], [-70.72104018890913, 42.25776137201059], [-70.72105191192358, 42.257685172837796], [-70.72119258630045, 42.25733934865479], [-70.7212922301267, 42.25718695185672], [-70.721333259779, 42.25709903091981], [-70.72138015183681, 42.257022832276455], [-70.72139773635853, 42.256964218844466], [-70.72139773635853, 42.25688801937333], [-70.72135084430067, 42.256811821804725], [-70.72130395314116, 42.256770791539374], [-70.7212043093149, 42.25678251466501], [-70.72115741725707, 42.25677665310247], [-70.72111638670647, 42.25672976124738], [-70.72106949644528, 42.25663011785106], [-70.72101088137299, 42.25655391864106], [-70.72091123754673, 42.25638393714407], [-70.72087606940167, 42.25633118538765], [-70.72083503885106, 42.25627843225732], [-70.72080573131491, 42.25624912486977], [-70.72075884015541, 42.25617878748298], [-70.72075884015541, 42.256114312307275], [-70.7208233158366, 42.25602052890699], [-70.72093468267732, 42.25596191520832], [-70.72097571322793, 42.25590916243403], [-70.72095812870623, 42.25574504218785], [-70.72102846589466, 42.2556336758933], [-70.72106363493803, 42.25556333848499], [-70.72106363493803, 42.25555161513272], [-70.72101674288022, 42.25552230807226], [-70.72089951543059, 42.25539335697752], [-70.720629888793, 42.25515890085414], [-70.72061816577855, 42.25511200912592], [-70.7206709193436, 42.25501822689469], [-70.72068264235806, 42.25495961226446], [-70.72071194899588, 42.254777907628394], [-70.7206943644742, 42.254695847084065], [-70.7205888582424, 42.25457861916461], [-70.72043060024217, 42.25447311391724], [-70.72023717409687, 42.25434416267197], [-70.72020786656073, 42.254238656367455], [-70.72027820285085, 42.254092121202966], [-70.72052438345952, 42.253816634703874], [-70.72064747331468, 42.253705268328545], [-70.72074711803927, 42.253588038567806], [-70.72095226719901, 42.25324807641533], [-70.72109880218478, 42.25296672830234], [-70.72129809073562, 42.252702964761085], [-70.72155599435874, 42.252398169666286], [-70.72166149969225, 42.25223405025733], [-70.72183148070694, 42.25199959369293], [-70.721884234272, 42.25183547391175], [-70.72146807264862, 42.25061629784917], [-70.7214211805908, 42.25052251558239], [-70.721333259779, 42.25046390076368], [-70.72115155574986, 42.25040528722035], [-70.72091123754673, 42.25038770274775], [-70.72071781050312, 42.25027633497255], [-70.72058299673516, 42.25015324530471], [-70.7205009374306, 42.24995981838855], [-70.72044818476384, 42.249713638907345], [-70.72040129360433, 42.24960813283629], [-70.72032509490867, 42.24957882633878], [-70.72018442053181, 42.249543657592895], [-70.72003202403882, 42.249485043194454], [-70.71987962664748, 42.24940298374311], [-70.71973309166171, 42.24929161622412], [-70.71959241728486, 42.24922714132217], [-70.71952794160364, 42.249162665024386], [-70.71946346502413, 42.24886373307417], [-70.71946932653135, 42.248740643309695], [-70.71946932653135, 42.24868788981497], [-70.71944001899521, 42.24861169098363], [-70.71936382119787, 42.24856480037234], [-70.71911764148751, 42.24852963172605], [-70.718918353835, 42.24844757103181], [-70.71873078829861, 42.24835965054586], [-70.71855494487838, 42.248254144869996], [-70.71837324084925, 42.248119331842126], [-70.71825601250129, 42.248025549187744], [-70.71816222928393, 42.24794348983265], [-70.71808016997937, 42.247879013552776], [-70.71798052525479, 42.24782626066746], [-70.71776365308058, 42.2478731524927], [-70.71765814684878, 42.24783212239687], [-70.71760539508034, 42.24779695334209], [-70.71758194905142, 42.24776764733308], [-70.71758194905142, 42.24773833998053], [-70.71751747247191, 42.247656279586856], [-70.71747644281963, 42.24761525001499], [-70.71745885829793, 42.24749802090474], [-70.71744713618179, 42.24733390138037], [-70.71739438351506, 42.24719322725748], [-70.7173826605006, 42.246917740550025], [-70.71737093748614, 42.24673017485413], [-70.71727129365988, 42.2465777783546], [-70.71723612461652, 42.246519163860206], [-70.7172771551671, 42.246519163860206], [-70.71788674293576, 42.24639607417572], [-70.71844357713934, 42.246314013365996], [-70.71870148076248, 42.24622023135274], [-70.71885387725547, 42.24613817097923], [-70.7189242144439, 42.24610886486461], [-70.71901213615402, 42.24606783428627], [-70.71907661183522, 42.24598577371458], [-70.71906488882077, 42.245915437516715], [-70.71904144279186, 42.24583923866138], [-70.71901213615402, 42.2457571791223], [-70.71910005786415, 42.24561650480847], [-70.71920556319763, 42.2454406624725], [-70.71965103056051, 42.24516517476176], [-70.71970378412557, 42.24510069963223], [-70.71982101157519, 42.24504794641858], [-70.71983273458964, 42.24499519316088], [-70.71984445760411, 42.24492485718859], [-70.71968619960388, 42.24454386398938], [-70.7196275845316, 42.244385606144384], [-70.71962172302437, 42.2442332093012], [-70.71955138673425, 42.24406908926344], [-70.7194165738646, 42.24398703008195], [-70.71915867113981, 42.24378187999879], [-70.71908247334245, 42.243693957665336], [-70.71905316580632, 42.24363534448169], [-70.71901799676293, 42.24356500699341], [-70.71898282861788, 42.24340088721244], [-70.71894765957451, 42.24323676700459], [-70.71891249142945, 42.24306678552819], [-70.71886560026995, 42.243014032608976], [-70.71885387725547, 42.242914388824516], [-70.71913522511089, 42.2419882843096], [-70.71921142380656, 42.241624876258086], [-70.71927589948776, 42.24153695424397], [-70.71940485085015, 42.241466617741565], [-70.71956897125592, 42.24142558746931], [-70.71968033809667, 42.24133180550479], [-70.71980928856074, 42.24126146810865], [-70.71988548815472, 42.241126655433554], [-70.71987376514026, 42.241021150296966], [-70.71983273458964, 42.24092150536036], [-70.71976825890846, 42.24078669262396], [-70.71972136774895, 42.24073980085183], [-70.71970378322725, 42.24066946479088], [-70.71976825890846, 42.24055809648504], [-70.71982101157519, 42.24044086889232], [-70.71984445760411, 42.24034122503446], [-70.71987962664748, 42.24012435217339], [-70.71989721027086, 42.23995437095764], [-70.71988548815472, 42.23988403335616], [-70.71996754745928, 42.23979611224158], [-70.72000271560434, 42.23965543860245], [-70.72004374615496, 42.239473733773345], [-70.72008477670553, 42.23930375280012], [-70.72006719218386, 42.239268584311624], [-70.72003202314049, 42.2392041091418], [-70.71996754745928, 42.238987236362895], [-70.71994410143039, 42.23883483911671], [-70.71998513108267, 42.23860624322243], [-70.72002616163327, 42.238442123179325], [-70.72004960766218, 42.23829558789722], [-70.7200730536911, 42.23812560707572], [-70.72003788464772, 42.2379439024969], [-70.71990307177808, 42.23769186200535], [-70.71959827699544, 42.237246393849986], [-70.71900041224126, 42.23673058874945], [-70.71880112369041, 42.23674231160926], [-70.71850805282054, 42.23681264805712], [-70.71825601250129, 42.23687712434026], [-70.71796880134202, 42.236900570003165], [-70.71782226635624, 42.2368478172493], [-70.71769917650106, 42.236777479510444], [-70.71758194815311, 42.236754034466856], [-70.71744127467457, 42.23679506378624], [-70.71732990693553, 42.23678334093626], [-70.71726543125433, 42.23674231160926], [-70.71718337105145, 42.23667783585349], [-70.71714234050083, 42.236619221472914], [-70.71708372722519, 42.23660163648307], [-70.71706028119628, 42.236589914927336], [-70.71703683516735, 42.236525439015864], [-70.71703097455843, 42.23645510158279], [-70.71696063737001, 42.23640821058227], [-70.71689030018157, 42.23634373448519], [-70.71682582450038, 42.236249952283806], [-70.71679651786253, 42.236150307793906], [-70.71678479484808, 42.23593343449627], [-70.71674962580471, 42.23574587006493], [-70.71675548731196, 42.23557002748855], [-70.71675548731196, 42.23545279794532], [-70.71680823997868, 42.235347292633456], [-70.71686685415266, 42.23520661905332], [-70.71694305284831, 42.23511283516218], [-70.71699580551507, 42.23503663722761], [-70.71711303476133, 42.23497216172451], [-70.71728887728324, 42.23491354775506], [-70.71731818392108, 42.23489596362014], [-70.71737093658781, 42.234854933066075], [-70.71739524949099, 42.23481631882743], [-70.71741952646153, 42.234605920462286], [-70.71738272248434, 42.2343114882105], [-70.71721096999191, 42.23402932401047], [-70.71656076399938, 42.23366128410944], [-70.7158860232198, 42.233158294636134], [-70.71570948091028, 42.232924635169454], [-70.71513773467296, 42.23239899731168], [-70.71452378558362, 42.231953768493184], [-70.71438932485357, 42.2318824216032], [-70.71410921757158, 42.23167901009029], [-70.71385408255614, 42.23151392220612], [-70.71364307188918, 42.23132049601048], [-70.7134555063528, 42.23117982143672], [-70.71337344525158, 42.23102156266527], [-70.7134379218311, 42.230898473344006], [-70.71380719139664, 42.23079882971698], [-70.71452814600602, 42.23057023331524], [-70.71491500009321, 42.23047645118157], [-70.71533702232549, 42.23035922215459], [-70.71553631087633, 42.230277162437794], [-70.71678479484808, 42.22934519658461], [-70.71691374531218, 42.22926313621473], [-70.71711889537025, 42.22919866013501], [-70.71730059850107, 42.2291459082602], [-70.71760539328372, 42.22908729353614], [-70.71787501902297, 42.22902867875765], [-70.71821498105237, 42.22887042057932], [-70.71844943774825, 42.22874733105428], [-70.71861355725571, 42.22865354887296], [-70.71866044931356, 42.228501151949224], [-70.71868389534247, 42.228389784119784], [-70.71860769754512, 42.228254971884105], [-70.71849632890778, 42.22811429779532], [-70.71828531824079, 42.227950177739714], [-70.71805086154491, 42.22778605792256], [-70.71785157299406, 42.22768641403863], [-70.7176874525883, 42.227522294200924], [-70.71763469992153, 42.22733472871987], [-70.71761711629817, 42.22719991622658], [-70.71760539328372, 42.22698890444248], [-70.71764642293601, 42.2268599535581], [-70.71774606766058, 42.226807200394106], [-70.7179453562114, 42.22668997253512], [-70.7180098309943, 42.22663721922908], [-70.7180098309943, 42.226519991054445], [-70.7179453562114, 42.226426207559754], [-70.71781054244347, 42.22620347436119], [-70.71770503710997, 42.22587523453092], [-70.71772262163167, 42.22544148908414], [-70.71784571148685, 42.22497843670259], [-70.71788674113914, 42.22486120877382], [-70.71802741551598, 42.224767424810565], [-70.71812119783502, 42.22468536580726], [-70.71813878235672, 42.22462088970838], [-70.71811533632778, 42.224521246150225], [-70.71820911954514, 42.22437471047666], [-70.7183908235743, 42.224099222596045], [-70.71861355725571, 42.22344860529498], [-70.71866631082078, 42.223202426148816], [-70.718730786502, 42.222809710063046], [-70.71880112279212, 42.22234665767084], [-70.71879526128488, 42.22217081501842], [-70.71881284580655, 42.22201841841083], [-70.7188421533427, 42.221830852543334], [-70.71901799586462, 42.22171948625167], [-70.71925831496607, 42.22165500978493], [-70.7194165729663, 42.22157881223515], [-70.71955724734316, 42.221443999425034], [-70.71962172212605, 42.22130918566182], [-70.71962758363327, 42.221191957572586], [-70.71963344514052, 42.2210395605982], [-70.71965689116942, 42.2209516398415], [-70.71970964383617, 42.22085785672342], [-70.71985031821302, 42.22074649004608], [-70.72006132977832, 42.220676152325744], [-70.72019614174964, 42.22068787550632], [-70.72033095461927, 42.22078165887687], [-70.72057127372071, 42.22112162034849], [-70.72064161001083, 42.22120954219902], [-70.7207412547354, 42.22131504719361], [-70.72084089856168, 42.22132090872486], [-70.72095812690961, 42.22123884923357], [-70.72105191012696, 42.22113334278114], [-70.72112224641707, 42.22112748189769], [-70.72123947566332, 42.22115092742385], [-70.72132739647513, 42.22116265051627], [-70.7214094557797, 42.221156788970326], [-70.72148565537368, 42.22113920432925], [-70.72154426954766, 42.221104037028084], [-70.72173769569294, 42.2210395605982], [-70.72197801479439, 42.22092819424133], [-70.72228280867871, 42.220711321195715], [-70.72278102960665, 42.2204651406904], [-70.72309754560712, 42.220154485883114], [-70.72320305273723, 42.22008414883387], [-70.72332028018687, 42.220025534344536], [-70.72333786470855, 42.220031395995505], [-70.72340233949144, 42.220142762603516], [-70.72346681607097, 42.22030688233268], [-70.72353129175217, 42.220347912364616], [-70.72365438160733, 42.220336189786195], [-70.72387125467986, 42.22033032816354], [-70.72397676001334, 42.22037721979908], [-70.7240764038396, 42.220336189786195], [-70.72408812685407, 42.22024826871538], [-70.72409984986852, 42.22007828785304], [-70.72412329499913, 42.219855552882606], [-70.72418191007141, 42.21963281978758], [-70.7243108605355, 42.219369055265574], [-70.72448670395573, 42.21912873724933], [-70.72508456870992, 42.218618793562406], [-70.72593274183153, 42.21819368488325], [-70.72611276780772, 42.218082899623774], [-70.72690961927883, 42.217694690302466], [-70.727465460844, 42.21733681931089], [-70.72792993206671, 42.2169028056367], [-70.72814313192805, 42.2166591484052], [-70.72835633178939, 42.21635457770606], [-70.7287979588544, 42.21556269286856], [-70.72969644392012, 42.214641365851776], [-70.7303664999855, 42.21388755167165], [-70.73131828479195, 42.213385008765556], [-70.73144011431079, 42.21327079524174], [-70.73179798515366, 42.21300429555089], [-70.73203402737605, 42.21285962471275], [-70.73232336933917, 42.21275302441043], [-70.73260509897857, 42.21264642459359], [-70.732863983562, 42.21255505365403], [-70.7328833620193, 42.21254121117371], [-70.73302388278424, 42.212440839294715], [-70.73322946852521, 42.212280938711594], [-70.73345789662726, 42.21223525332663], [-70.73373962536833, 42.21222002552299], [-70.73402896822978, 42.21209058272301], [-70.7343639958133, 42.21183931060891], [-70.73480562467496, 42.21142052640998], [-70.73507973839739, 42.211108340696356], [-70.73528532324005, 42.210948440732054], [-70.73552136636074, 42.21078854036297], [-70.73606197968525, 42.21049158440738], [-70.73622187980583, 42.21037736964353], [-70.73655690828767, 42.21019462705571], [-70.7368614793898, 42.2100271136059], [-70.73712036487153, 42.20989005578822], [-70.7373716353346, 42.20981391324093], [-70.73760767845528, 42.20973015606674], [-70.73778280681654, 42.20967685629138], [-70.73842240640053, 42.20950934213386], [-70.73878027724342, 42.209440814363944], [-70.73895540560468, 42.20936467060974], [-70.73912291894729, 42.209242842541286], [-70.73925236258647, 42.20921238482209], [-70.73947317656814, 42.20929614268282], [-70.73960261930901, 42.20936467060974], [-70.7399909475316, 42.21000427076784], [-70.74013561851316, 42.210164169795426], [-70.7404858752357, 42.21088752625844], [-70.74060770475452, 42.21115402623105], [-70.7407371474954, 42.21132915436237], [-70.74088181757864, 42.21147382604471], [-70.74106456095859, 42.21161088242192], [-70.74149095978291, 42.21186215344871], [-70.7417422320426, 42.21196113965769], [-70.74209248786686, 42.21209058272301], [-70.74238944484863, 42.21212103838902], [-70.74267878771008, 42.21200682524091], [-70.7429376731918, 42.21188499694558], [-70.74325747253464, 42.2116946397637], [-70.74339452939583, 42.21158803949125], [-70.74346305827561, 42.21147382604471], [-70.74349351565532, 42.211222554138445], [-70.74347067239596, 42.21093321261817], [-70.74356965865542, 42.2107428552293], [-70.74372955787767, 42.21059056943746], [-70.74391991447965, 42.210483969297755], [-70.74401128572045, 42.21044589772817], [-70.74424732884114, 42.21022508430129], [-70.74439961394306, 42.21001949844028], [-70.74456712818397, 42.20979107032577], [-70.74472702830455, 42.209722542196054], [-70.74496307052692, 42.20967685562604], [-70.74529809811045, 42.209638784900704], [-70.74573211285175, 42.209699698582504], [-70.7461280551947, 42.20979107032577], [-70.7465011551766, 42.20981391324093], [-70.74665344027852, 42.209836755482456], [-70.74692755400095, 42.2098672129006], [-70.74722451188104, 42.20985198519139], [-70.74794786858548, 42.20981391324093], [-70.74861792375255, 42.209737770601805], [-70.74883112361387, 42.209806298715], [-70.74897579549373, 42.20994335604903], [-70.74909762411426, 42.21020985601297], [-70.74921945183645, 42.210392598556794], [-70.74944026671645, 42.21051442640383], [-70.74984382317973, 42.210605797633946], [-70.75025499376338, 42.21076569780026], [-70.75050626512477, 42.210933211952806], [-70.7509935787085, 42.21167179686331], [-70.75119155032914, 42.211938296853724], [-70.75143520667186, 42.212159110279615], [-70.75159510679244, 42.21238753847999], [-70.751755006913, 42.212631195558366], [-70.75186922051488, 42.21283678090298], [-70.75199104913538, 42.213034752107035], [-70.75224232049676, 42.21318703732873], [-70.75253166245989, 42.21330125233466], [-70.75285028680632, 42.21333966150434], [-70.7542835748933, 42.21427105725708], [-70.75483039018651, 42.21439381240431], [-70.75573306140144, 42.214588362962566], [-70.75597671864247, 42.21474064776487], [-70.75628128974462, 42.21475587629141], [-70.75652494698565, 42.21460359086054], [-70.75666200384686, 42.21431424886089], [-70.75666200384686, 42.21362896339163], [-70.75667723298587, 42.21317210716033], [-70.75632697536501, 42.2100502531908], [-70.75605286164259, 42.209288826183965], [-70.75594626126276, 42.208359884104546], [-70.7560071760222, 42.208024856344984], [-70.75611377550368, 42.20762891318493], [-70.75609854636468, 42.207324342189104], [-70.75602240426288, 42.20689794378807], [-70.75579397616086, 42.20659337259503], [-70.75548940505873, 42.206304029832594], [-70.75545445340764, 42.206164225769996], [-70.75558238518222, 42.20560985598514], [-70.7554257154034, 42.20505778303322], [-70.75504500130116, 42.20414407037491], [-70.75451200209699, 42.20317324888129], [-70.75415032419393, 42.20269735709383], [-70.75481657319914, 42.202069179343596], [-70.75550185750518, 42.201155466053336], [-70.7560729282094, 42.20079378803826], [-70.75363558145128, 42.19838322029139], [-70.75323864197837, 42.19812462510831], [-70.75275406466298, 42.19797833897054], [-70.75251634798093, 42.19779547932474], [-70.75239749008905, 42.19761261981531], [-70.75211405724386, 42.197484617843855], [-70.75170262345384, 42.19729261606434], [-70.75117233177195, 42.19702746982239], [-70.75060546787822, 42.19690861142067], [-70.75025803545894, 42.19679889623528], [-70.749828315563, 42.196634322767274], [-70.74941688267128, 42.19651546495717], [-70.74903287804015, 42.19633260507147], [-70.74876773219921, 42.19587545736817], [-70.7485559256249, 42.19551188633196], [-70.74721200104408, 42.194824495464005], [-70.74643153843704, 42.194101139431275], [-70.7457081817326, 42.193568138909825], [-70.74512062155301, 42.19304702326746], [-70.7431954699154, 42.19303513988339], [-70.74249114941014, 42.19301610450104], [-70.74195814930768, 42.19292092550676], [-70.74146322250188, 42.192635390991605], [-70.74064468659815, 42.19250214102099], [-70.74020686569497, 42.192235640902624], [-70.73982615159274, 42.19195010595384], [-70.73933122388864, 42.19156939201346], [-70.73896954508726, 42.191226749636236], [-70.73876015408273, 42.19113157127521], [-70.73817004628101, 42.19103639343644], [-70.73780836927627, 42.19088410739832], [-70.73689465507155, 42.19061760777904], [-70.73634261966822, 42.19048435754804], [-70.73588576346417, 42.19042725041036], [-70.73552408466279, 42.19029400044367], [-70.73508626375961, 42.189913286511874], [-70.73480072795836, 42.189665823190055], [-70.73443905005529, 42.18951353784339], [-70.73402026535129, 42.189456430494225], [-70.73354437294807, 42.1893802879473], [-70.73339208694784, 42.18924703777037], [-70.73323980184594, 42.18888535948964], [-70.73331594484604, 42.188333324783414], [-70.73362051504985, 42.18802875329336], [-70.73379183724929, 42.18759093199279], [-70.73415351515233, 42.18715311098794], [-70.73445808625446, 42.18675336217049], [-70.73445808625446, 42.18604904111259], [-70.73428676405506, 42.18545893494927], [-70.73373173366856, 42.18465572439712], [-70.73323842652522, 42.184307879167434], [-70.7324664817437, 42.18403218457164], [-70.73115233631458, 42.183563504727424], [-70.73015064560248, 42.183315379519726], [-70.72961763561857, 42.1832142908971], [-70.72916733442113, 42.183076444027776], [-70.72892839872523, 42.18282831757429], [-70.72842295803737, 42.182515864772334], [-70.72812888374932, 42.18239639729268], [-70.72781642993058, 42.18226773878156], [-70.72756830446932, 42.18198285442749], [-70.72758668400003, 42.18178986896155], [-70.72749260164369, 42.18117423970458], [-70.72701242337826, 42.18078650718806], [-70.72657256240106, 42.180437938376485], [-70.7263318839735, 42.18003957499598], [-70.72628208945899, 42.1796578100923], [-70.7261078055141, 42.1795250213832], [-70.72583392984521, 42.179483525478474], [-70.72575093719107, 42.17933413933037], [-70.72575093719107, 42.17912665757686], [-70.72585052801672, 42.178852783042984], [-70.72580073350221, 42.178612104523744], [-70.7258090321388, 42.17836312775542], [-70.7258090321388, 42.178172245523854], [-70.72577583489748, 42.17796476395225], [-70.72612440278728, 42.17765769202742], [-70.72683813853503, 42.17732572221292], [-70.727103714669, 42.177118240526795], [-70.7275684724543, 42.17690246063524], [-70.72775105593409, 42.17684436594886], [-70.72793363851558, 42.17672817641595], [-70.72793363851558, 42.176421104478024], [-70.72780085134691, 42.176055937635546], [-70.7276265665037, 42.175823558122154], [-70.72742738485239, 42.175732266412375], [-70.72732779402672, 42.17565757394455], [-70.72713691191032, 42.17549158866555], [-70.72704561972125, 42.17540859686128], [-70.72686303624144, 42.175259210407134], [-70.72669705093313, 42.17511812269152], [-70.7266140591773, 42.17501023308707], [-70.72662466828079, 42.17477828712355], [-70.72648799230528, 42.17468261464987], [-70.72629664665817, 42.17461427679467], [-70.72606429740993, 42.17462794450478], [-70.72584561602875, 42.17472361772692], [-70.72533991482945, 42.17498330060155], [-70.72427470963353, 42.17537361047924], [-70.72406882924514, 42.17540699710002], [-70.72320777158741, 42.175379661347876], [-70.72204602624456, 42.175078975283384], [-70.72104535422203, 42.17502517493617], [-70.72035642724745, 42.175043430164116], [-70.71992486670351, 42.17505172926418], [-70.71955140020897, 42.17515962012933], [-70.71914473737144, 42.17520941462209], [-70.71844760069351, 42.17525091133425], [-70.71811563187352, 42.17514302062489], [-70.71770896813764, 42.17487744460471], [-70.71730230530011, 42.17452057733918], [-70.71708652457897, 42.174213505334116], [-70.71691224063407, 42.173947930071], [-70.7168043493752, 42.173665755132006], [-70.716787752102, 42.17322589568154], [-70.71673795579085, 42.173018414525686], [-70.7164889787267, 42.172719641291046], [-70.7163439753685, 42.17265174005338], [-70.716291972795, 42.17259147439827], [-70.7161006262496, 42.17181242240745], [-70.71600495387521, 42.171156377735805], [-70.71579993856444, 42.1704866656471], [-70.71573160102582, 42.16984428995036], [-70.71558125718325, 42.16907890499084], [-70.71548558480887, 42.16838185809649], [-70.71549733836603, 42.167904609079976], [-70.71513045562422, 42.16716151567341], [-70.71512824217535, 42.16716036513331], [-70.70694669918133, 42.162909457252724], [-70.70693663355857, 42.16290422753645], [-70.70679083519133, 42.16248141479677], [-70.7063985157539, 42.16224162284674], [-70.70627030460331, 42.162106665438486], [-70.70614209524932, 42.16181650706809], [-70.70603412943026, 42.16153984344444], [-70.70599364236043, 42.16131716379345], [-70.70581819779215, 42.16098651789505], [-70.7055145420733, 42.16079757689126], [-70.70538633271933, 42.160682862125974], [-70.7052092909465, 42.1604165341958], [-70.70480240353014, 42.15978835709981], [-70.70432413148973, 42.15926011619547], [-70.70406714953808, 42.158903197444715], [-70.70387480676102, 42.15853703581249], [-70.70342944629766, 42.15807143267879], [-70.70305156548181, 42.157619324364745], [-70.7027601142744, 42.157054316117225], [-70.70216905246187, 42.156095482135676], [-70.70157040437674, 42.1551307053541], [-70.7014624385577, 42.15493501677042], [-70.70119252266258, 42.15453014354811], [-70.70094285209905, 42.15415900987201], [-70.7008011455579, 42.15392958336873], [-70.70047724720244, 42.15361918014986], [-70.70025456741993, 42.15332227390454], [-70.70007912195337, 42.15309959330652], [-70.69999140056755, 42.152917400354816], [-70.69986993756136, 42.15276894642619], [-70.69978221617554, 42.15264748477009], [-70.6996944929931, 42.152499031540316], [-70.69961310023848, 42.15224465145882], [-70.69913882120949, 42.15160704547113], [-70.69877273168007, 42.151264169228625], [-70.69842859068798, 42.15076482660045], [-70.69815192664846, 42.150353205442926], [-70.6979090024327, 42.15010353335902], [-70.69752437347245, 42.14960419089891], [-70.69728819829942, 42.14933427517158], [-70.69703852593923, 42.14896988971138], [-70.69684535940705, 42.14861028016012], [-70.69655584586573, 42.14823991099673], [-70.69496665246626, 42.14609668727625], [-70.69425062511623, 42.14513113465543], [-70.69393719932033, 42.144671488701306], [-70.6938562242823, 42.14445555617041], [-70.69376850199816, 42.14425986788538], [-70.69341674778407, 42.14393413569097], [-70.6932354192507, 42.143632314383176], [-70.69288452831756, 42.14322744146455], [-70.6926213614652, 42.14289679563619], [-70.69239193353827, 42.14247167912736], [-70.69216925375574, 42.14220176429468], [-70.69205453979227, 42.141952092699476], [-70.6918758145766, 42.14157875911142], [-70.69142294779074, 42.140864623586815], [-70.6906239879737, 42.13983325753558], [-70.69041480358167, 42.1395228544678], [-70.69030683776262, 42.139387897238215], [-70.69019887104525, 42.1391314774431], [-70.68975903971247, 42.138232294700174], [-70.68847137032971, 42.13619411884263], [-70.68660516164945, 42.133409384550006], [-70.68565369304999, 42.13209659998618], [-70.68558871700715, 42.131993568172454], [-70.68498815551048, 42.1312985364056], [-70.68440108940432, 42.13061699968326], [-70.68407044380275, 42.13023911900427], [-70.68381402419647, 42.129888229068655], [-70.6836385787299, 42.129456364375294], [-70.68317972287603, 42.12894352593297], [-70.68297053938235, 42.12876133274968], [-70.68282883284121, 42.128498165003606], [-70.68261964844922, 42.128181015410696], [-70.68248469095083, 42.128079796710146], [-70.68234298620634, 42.127857117264966], [-70.68209331384615, 42.12753996646131], [-70.68189762484467, 42.12729029502275], [-70.68178965992392, 42.1270541193683], [-70.68163930619988, 42.12685929539356], [-70.68065662024595, 42.12566170451454], [-70.68005885071317, 42.124845237520475], [-70.67842591744422, 42.123256044823734], [-70.67792762195612, 42.12282768490065], [-70.67742917644937, 42.12234409771613], [-70.67672064913364, 42.12173678843175], [-70.67584342359744, 42.12095403402258], [-70.67542505571174, 42.12048168189976], [-70.67507416567693, 42.120157783702986], [-70.67483124235949, 42.11994859934833], [-70.6745748227532, 42.119739414969445], [-70.67431165500253, 42.11959096187263], [-70.67402149647081, 42.11943576056622], [-70.67387978992967, 42.11924682014349], [-70.67342768222024, 42.11892292096527], [-70.67287381784696, 42.118579580538245], [-70.67267191969023, 42.118443821726245], [-70.67250322236806, 42.11824813368932], [-70.67246273529823, 42.11807268840695], [-70.67234802043644, 42.117809520905375], [-70.67229403797607, 42.11749911851499], [-70.67213208790002, 42.11731017831506], [-70.67200387854604, 42.11712123755181], [-70.67192377487385, 42.117018262676275], [-70.67150416731305, 42.11664754747415], [-70.67080141257134, 42.11562535871805], [-70.66954923113386, 42.11397707933995], [-70.66889758604025, 42.11315932958208], [-70.668667593073, 42.11262268019274], [-70.66848871065217, 42.11236074488728], [-70.66817566484363, 42.11213714054253], [-70.66799039360448, 42.11189437098868], [-70.66779426173356, 42.111682266490995], [-70.66768565272078, 42.11144588671348], [-70.66754510320972, 42.1112670032512], [-70.66743649419693, 42.111113674833874], [-70.66732149906076, 42.11107534283816], [-70.66727677823098, 42.11097312384755], [-70.66725761267439, 42.11090284857073], [-70.66704039644544, 42.11087729360236], [-70.66679123792163, 42.11081979605214], [-70.66667624188715, 42.110704800128765], [-70.66660596758078, 42.11051952829502], [-70.66651652592121, 42.11024481434913], [-70.66643347218161, 42.11003398852822], [-70.66619070247607, 42.10964427862929], [-70.66580738146287, 42.10920345972345], [-70.66562849904203, 42.109094852623464], [-70.66544322690457, 42.10897985690292], [-70.66528351004031, 42.10894152428332], [-70.66523240129054, 42.108788196238706], [-70.6650279635965, 42.108526259749105], [-70.66490018902712, 42.108443208115254], [-70.66477241535604, 42.1081365512439], [-70.66446575926415, 42.10793211294984], [-70.66438909524116, 42.10782350567103], [-70.66435715204797, 42.107625456938344], [-70.66402493978455, 42.10723574756059], [-70.66382944661578, 42.10707986420501], [-70.66343973768261, 42.106715709462556], [-70.66319057915878, 42.10650488256776], [-70.66289031098684, 42.106274890851914], [-70.66273698204257, 42.106198226316906], [-70.66255809962173, 42.10605128636551], [-70.66222588825663, 42.10566796541022], [-70.66182340168683, 42.10529103427648], [-70.66151674559491, 42.10499715515956], [-70.66132508463916, 42.10483104920097], [-70.66115897895662, 42.104575501901735], [-70.66112064694512, 42.10435828765369], [-70.66085871078468, 42.10427523455835], [-70.66066066190895, 42.10411551763315], [-70.66029011853233, 42.10378969428459], [-70.65999943358787, 42.10348814955429], [-70.65962250229127, 42.10332204364116], [-70.65946917424532, 42.103245380200846], [-70.65922001572149, 42.1030664962581], [-70.65886224818486, 42.102791782672305], [-70.65831282238742, 42.10233818723064], [-70.65795505664742, 42.102089029010756], [-70.65773145249848, 42.101916534951464], [-70.65745673959975, 42.10173126276023], [-70.6572267466325, 42.10163543254071], [-70.65706703066657, 42.10151404876561], [-70.65695842255208, 42.1013607194197], [-70.65669009757336, 42.10114989337984], [-70.65630038864016, 42.10094545588375], [-70.65591067970698, 42.10070907406145], [-70.65567912007786, 42.10057139071341], [-70.65525520060372, 42.100312976184746], [-70.65476327237435, 42.09992326718113], [-70.65443744982754, 42.09959744495142], [-70.65418829130371, 42.09940578458317], [-70.65387524549517, 42.0991246823728], [-70.65356220058497, 42.09872219579562], [-70.65315971401517, 42.09838998455838], [-70.6530830499922, 42.09826221172146], [-70.65316610283348, 42.098064162448935], [-70.65340248372071, 42.09784694655708], [-70.65352386857347, 42.09764889798734], [-70.65360692141476, 42.09736779665414], [-70.65357497822157, 42.09704836226297], [-70.65346637010708, 42.09659476639568], [-70.65326193331137, 42.09632005276702], [-70.65319165810668, 42.095936732970344], [-70.65314742685872, 42.09556352746446], [-70.65310283897959, 42.094627514792265], [-70.65306714711673, 42.09418731472216], [-70.65300766067861, 42.09360434700749], [-70.65275781674022, 42.09329501662908], [-70.65236520624866, 42.09310465974879], [-70.65175844368159, 42.09292619982133], [-70.65113633609282, 42.09277292703637], [-70.65042594387457, 42.092367027107734], [-70.65008092253349, 42.09217667010876], [-70.64987866774558, 42.09225995103278], [-70.64959313284265, 42.092521692081995], [-70.64914103591296, 42.093045172939895], [-70.64878411548767, 42.093628141128015], [-70.64863198220104, 42.09371829406666], [-70.64802257050216, 42.093718190744546], [-70.64738787482133, 42.09372371081143], [-70.64677525344197, 42.093574695501246], [-70.64604121397217, 42.093204915083575], [-70.64504225593518, 42.09228874389431], [-70.64413160498559, 42.09167612433385], [-70.64350794600632, 42.091493993990056], [-70.64299466841591, 42.091367054532085], [-70.64261937115484, 42.091206999781015], [-70.64249243112036, 42.09099727524276], [-70.6422164758516, 42.09022460064465], [-70.64177165707235, 42.089117415583914], [-70.6411892047135, 42.08822755811169], [-70.64067112742453, 42.08767477522435], [-70.64043380510287, 42.087327072241074], [-70.64014129388342, 42.08691865880037], [-70.63988741471279, 42.08618461892587], [-70.639880152732, 42.08611299082466], [-70.63968467752956, 42.08580581061469], [-70.63959753825205, 42.08551716130324], [-70.63950495248899, 42.085016110298355], [-70.63951584546012, 42.083736252153116], [-70.63986538712369, 42.08323083683695], [-70.64025561887637, 42.08276446334129], [-70.64071247508043, 42.082221946268085], [-70.64100752853211, 42.0819459282926], [-70.641026563833, 42.08175557135717], [-70.64095993938163, 42.081451000272686], [-70.64095993938163, 42.08114642972645], [-70.64114077833315, 42.0807466793326], [-70.64143583088654, 42.08041355519208], [-70.64217822289186, 42.07987103735346], [-70.6426350790959, 42.079566466557644], [-70.64309193709657, 42.079166717544965], [-70.64353927565018, 42.07921430594033], [-70.64386288205317, 42.07929996749568], [-70.64414512193567, 42.079373839551316], [-70.64443377039939, 42.07941196335243], [-70.6446407269695, 42.07954267182976], [-70.64483679056846, 42.0795317799114], [-70.64506933475113, 42.07934024559545], [-70.6456219890937, 42.078796414415386], [-70.64574630694585, 42.07862226346406], [-70.64580621469383, 42.0785242307094], [-70.64598593973442, 42.07836629117536], [-70.64623101900857, 42.07820835191495], [-70.64651966837059, 42.078115765935785], [-70.64685188692222, 42.07799050261175], [-70.64716776691549, 42.07749489831178], [-70.6476198027597, 42.07704286287592], [-70.64789755915059, 42.076465564553885], [-70.64808517139939, 42.07591123893779], [-70.64822433121667, 42.075240168601674], [-70.64845307193241, 42.07457573111885], [-70.6485565497683, 42.07383504644858], [-70.64869238402243, 42.0731280244126], [-70.64868181264816, 42.07276759024156], [-70.64879073607129, 42.072620542156706], [-70.6488343061592, 42.072146722307494], [-70.6488942148055, 42.07147683913051], [-70.64886153768873, 42.071117389829126], [-70.64897046111187, 42.07039304371074], [-70.64906849336053, 42.07005537936813], [-70.64913929318134, 42.069826638502725], [-70.64911881967768, 42.06920795308221], [-70.64914002979985, 42.06903953610059], [-70.64902005350545, 42.068790353769316], [-70.64864996916796, 42.066151488945415], [-70.64850515355765, 42.064317156224924], [-70.64819138550362, 42.06364778663992], [-70.64798220739982, 42.06224790065878], [-70.64751557932212, 42.060992830929024], [-70.6474190355819, 42.060317024290626], [-70.64669495573366, 42.057855157120386], [-70.64597087678374, 42.056165640268766], [-70.64540770406751, 42.054878388862626], [-70.64429745015671, 42.05157980798635], [-70.64326764846444, 42.049343209690335], [-70.64206085171176, 42.04764725723874], [-70.64021042822769, 42.044831395474844], [-70.63827150541675, 42.04220540334454], [-70.6344580231867, 42.03805401906411], [-70.63220533411838, 42.0355921523208], [-70.62691151364004, 42.03075208889233], [-70.62358075100937, 42.028113224232676], [-70.62154528535655, 42.026581395483184], [-70.62048330241755, 42.02545505081853], [-70.6189386016758, 42.02362071922011], [-70.61723299380202, 42.022043836415854], [-70.61523775470764, 42.019945617312615], [-70.61443322174254, 42.01886754419058], [-70.61341951247029, 42.01766074750796], [-70.61216444205085, 42.01587468654065], [-70.61144036399925, 42.01478052291078], [-70.61095764350155, 42.01424953208878], [-70.61078064664447, 42.01399208223805], [-70.61001634113613, 42.013036297734494], [-70.60884172473186, 42.01190995340804], [-70.60805328328847, 42.011041058648416], [-70.60702348249451, 42.01022043689885], [-70.60547878085445, 42.008949276174384], [-70.60281545480179, 42.007092940764934], [-70.60126281744449, 42.00636098177358], [-70.60048649786754, 42.00551812262074], [-70.60030905454778, 42.00480834549007], [-70.6002646930441, 42.00414292883046], [-70.59957709557618, 42.003388790837604], [-70.59908856118194, 42.003282588026856], [-70.5985567908731, 42.00316698466905], [-70.59742853113076, 42.00303788131007], [-70.59615353518004, 42.00269015539657], [-70.59386925056653, 42.00173837132112], [-70.59196568185193, 42.00069140814887], [-70.59110907624478, 41.99945408846406], [-70.58958621983577, 41.99688427045475], [-70.58796818602411, 41.99431445215505], [-70.58102015567933, 41.982131609543906], [-70.57978283596991, 41.9794666120649], [-70.57902140866372, 41.97699197285343], [-70.5784503370612, 41.97432697532219], [-70.5784503370612, 41.97156680012816], [-70.57854551626049, 41.96652234175052], [-70.58005225958823, 41.95909561876583], [-70.58027469233406, 41.958308549653054], [-70.58094198877487, 41.95786368513993], [-70.58178038822616, 41.957093726387484], [-70.58213970266172, 41.95681996379492], [-70.58285833063448, 41.95646065019411], [-70.58364539945214, 41.95610133523547], [-70.58378228024357, 41.955553809701044], [-70.58376517093066, 41.955228716402296], [-70.58354273728654, 41.95445875788185], [-70.58352562797363, 41.95382568090035], [-70.58352651371251, 41.95089975095258], [-70.58340944256972, 41.94972393545716], [-70.58340207279115, 41.949649920009556], [-70.58324978768924, 41.949135955771474], [-70.58309750168901, 41.948641028055704], [-70.58298328718884, 41.948450670578545], [-70.58298328718884, 41.94816513530133], [-70.58307846638812, 41.94789863629256], [-70.58345917959207, 41.94778442161341], [-70.58383989369432, 41.94786056386475], [-70.5841825362965, 41.94786056386475], [-70.58454421509789, 41.94778442161341], [-70.58463726079837, 41.94743812368421], [-70.58466011843078, 41.94733411387558], [-70.58474159922031, 41.94711217520582], [-70.58479993132329, 41.94697648795609], [-70.58505817810284, 41.94637578024082], [-70.58559117730701, 41.94628060153195], [-70.58631453401145, 41.946014101994756], [-70.58732119959356, 41.945680641598706], [-70.58753410750242, 41.94563255029775], [-70.58781845123931, 41.94556099356591], [-70.58814839256168, 41.945533874053304], [-70.58846072061631, 41.94556579288124], [-70.58863735994389, 41.94566709088932], [-70.58858323914298, 41.945500822695514], [-70.58845419525409, 41.9452956936942], [-70.58840898484247, 41.94499898208858], [-70.58837575346516, 41.94466623933065], [-70.58802107703143, 41.9442208432853], [-70.58754596885743, 41.9438983227569], [-70.58744058749147, 41.94360280267647], [-70.58731064888056, 41.943293931132594], [-70.58737675051242, 41.94307238063971], [-70.58742106620201, 41.94281518677064], [-70.58745674009859, 41.942283245414195], [-70.58739546601305, 41.94178864536585], [-70.58726287557543, 41.941389830344036], [-70.58698061862495, 41.940898330486554], [-70.586482978907, 41.94064876605028], [-70.58586887171417, 41.94065708047044], [-70.58547014728879, 41.94047782004868], [-70.58526993437152, 41.94029599589111], [-70.58475563539663, 41.93987083542538], [-70.58450368580719, 41.939599693758495], [-70.58424801180263, 41.9392024293392], [-70.58426794991036, 41.93899950524016], [-70.58443511111336, 41.93881264450364], [-70.58450344775366, 41.9385909153939], [-70.5844470622999, 41.93831694236104], [-70.58428964602109, 41.93790039554324], [-70.58391467305182, 41.93762645295537], [-70.5834702010223, 41.93754243939155], [-70.58315179316983, 41.93758279264532], [-70.5829271137375, 41.93745979760158], [-70.58262429165522, 41.93714863164462], [-70.58242035432279, 41.93682283304002], [-70.58214214967255, 41.93647989765209], [-70.58193371178055, 41.93602362346619], [-70.58194944756939, 41.935636134030126], [-70.58190668057533, 41.93494325998079], [-70.5823402452607, 41.93462207917352], [-70.58248603823803, 41.93452942433029], [-70.58307484348259, 41.93448546585849], [-70.58339578458416, 41.93453529503603], [-70.58416069106542, 41.93467342921154], [-70.58462998893616, 41.934792996098885], [-70.58529139153039, 41.93471187438542], [-70.58575064533792, 41.93441259884428], [-70.5863239528472, 41.93376094127615], [-70.58673340764865, 41.93342643911054], [-70.58712343009387, 41.93329030305802], [-70.58743727809795, 41.933065056970136], [-70.58769879384684, 41.93273308795959], [-70.5879606374808, 41.93236464210252], [-70.58806133952244, 41.932021079944214], [-70.58834321019737, 41.93153977357601], [-70.58868161544636, 41.93126058558844], [-70.58923617691228, 41.930816053585325], [-70.58952251760404, 41.930496632364914], [-70.58972931607065, 41.92990854286386], [-70.58956644611975, 41.92930722189983], [-70.58943138172184, 41.92883169544259], [-70.58944586615748, 41.928426235066546], [-70.58970314994306, 41.92790940301633], [-70.59008703330163, 41.92751678691905], [-70.59047359992793, 41.92727276546665], [-70.59019646786616, 41.92708736545466], [-70.58995208837965, 41.926901816531334], [-70.5897688338583, 41.92665198278388], [-70.58972216278605, 41.92634218768516], [-70.58977622429815, 41.92616093075919], [-70.58982817027777, 41.92584967425549], [-70.58982051124167, 41.92552557438278], [-70.58973316086006, 41.92520254692219], [-70.58961082199646, 41.92504200204081], [-70.58942932547815, 41.92494094195669], [-70.58906639262862, 41.924675790894774], [-70.5887830918358, 41.924432037954624], [-70.58871553044159, 41.924149392776805], [-70.58890563910855, 41.92388102219849], [-70.58953530242715, 41.923606602328235], [-70.5897865064149, 41.92336421949622], [-70.58976078674999, 41.92313059959757], [-70.58962554448566, 41.92246612667273], [-70.5895346170126, 41.92200812469683], [-70.58954460088866, 41.92159345451283], [-70.58952376895724, 41.92077857042903], [-70.58953896755351, 41.92057135466629], [-70.58976233634385, 41.92001878960038], [-70.59004009453139, 41.91960981279944], [-70.58975423084506, 41.919244465495936], [-70.58949891347163, 41.91858145340036], [-70.58950266842952, 41.91792836474222], [-70.58937097181561, 41.917412396841755], [-70.58898428750999, 41.91700344945971], [-70.58879703907888, 41.91663670153316], [-70.58871007587118, 41.91631376409908], [-70.58880153963847, 41.916015382872146], [-70.58885837604649, 41.915736973218586], [-70.58870848854808, 41.91556210341487], [-70.58832092658844, 41.91552087458023], [-70.58793336462877, 41.915578596411926], [-70.58743860670626, 41.91549613606347], [-70.58693560224943, 41.91531472465982], [-70.58649031904119, 41.915149804511465], [-70.5857729181671, 41.914803473085506], [-70.58527294372772, 41.914388980691704], [-70.5850695121468, 41.91420253785199], [-70.58485618652134, 41.91397598032755], [-70.58479345357179, 41.913828309564536], [-70.5848437295833, 41.91345828385683], [-70.58503473297225, 41.9131897947803], [-70.58492991844321, 41.91295277712883], [-70.58477777707175, 41.91243680978058], [-70.58465177308179, 41.91211446745209], [-70.58460802333083, 41.91193484871656], [-70.58456013054978, 41.91161119558916], [-70.58446836854182, 41.9110946324497], [-70.5845800983019, 41.91080945269041], [-70.58471411885745, 41.910631831148336], [-70.584930692791, 41.90975531492174], [-70.58519560506996, 41.90926518579842], [-70.58584145153843, 41.90852230356555], [-70.58624440882544, 41.90805750673582], [-70.58576402574408, 41.90787490758069], [-70.5855467367516, 41.90766638035139], [-70.58535141156779, 41.90735366444486], [-70.58524966658207, 41.907057936265794], [-70.58522290397313, 41.906864698218065], [-70.58509937394346, 41.90665474032036], [-70.58511820802171, 41.90646084653321], [-70.58518314813193, 41.90624829596491], [-70.58512932467335, 41.90595143546639], [-70.58507517422802, 41.905673260038824], [-70.58509213082732, 41.90540739377646], [-70.58496711049261, 41.90511205304559], [-70.58491567206113, 41.90493735203116], [-70.5849113206219, 41.904743546629], [-70.5851881840874, 41.904550427937565], [-70.58503178200655, 41.9043860081555], [-70.58464837475508, 41.90410765474993], [-70.58438358105371, 41.903832102844746], [-70.58409369291492, 41.90350278713314], [-70.58387247109809, 41.90310054421434], [-70.58365232097141, 41.902720893364474], [-70.58361921086667, 41.902370029581014], [-70.58386534835621, 41.901875936419664], [-70.58420762803902, 41.90146570872813], [-70.58448115336495, 41.901200974292266], [-70.5848224493925, 41.900687331021864], [-70.58481547666929, 41.9004036125144], [-70.58471453567576, 41.90012585487689], [-70.5844966502019, 41.89984958707167], [-70.58427831916367, 41.89960491020508], [-70.58411035396847, 41.89944958111595], [-70.5839873584364, 41.89920383089516], [-70.58395698998991, 41.898942880931294], [-70.58392784415052, 41.89869570054536], [-70.58398935539128, 41.89834790779023], [-70.58407685579152, 41.89806320600775], [-70.58416390793246, 41.89778270675656], [-70.58420732979833, 41.89766057644317], [-70.58431914849166, 41.8974294889254], [-70.58440485944786, 41.897076838836355], [-70.58455673312136, 41.89658408684281], [-70.58454773200222, 41.89623295530643], [-70.58456650768997, 41.89605688330152], [-70.58434528497484, 41.895641111713], [-70.58417734852574, 41.895499311617705], [-70.58421713490966, 41.89520164553888], [-70.58437511712711, 41.894938074046344], [-70.58422920467382, 41.89472865266475], [-70.58408028196602, 41.89441546014457], [-70.58388978522687, 41.89413007348084], [-70.58383658879238, 41.89397316433579], [-70.58380809782483, 41.89379768792325], [-70.58383521796326, 41.89346867018915], [-70.58392960215355, 41.893237553460885], [-70.58387351314381, 41.892954730011546], [-70.58381703875685, 41.89269881726303], [-70.58373540884698, 41.89236213985538], [-70.58371717035178, 41.892114929318154], [-70.58365074173315, 41.89193113906779], [-70.58352297884187, 41.8916583285044], [-70.58351314318782, 41.891635796858516], [-70.58343231996508, 41.89146583494229], [-70.5833164184288, 41.89132773027078], [-70.58326733448168, 41.89126991495864], [-70.58311406123295, 41.89104252240216], [-70.58304542545366, 41.890728047919715], [-70.58286777462307, 41.89060430920722], [-70.58271140128832, 41.89037721587723], [-70.58254206436568, 41.89025758849643], [-70.58221900773162, 41.89005949277032], [-70.58206206755992, 41.88983162377952], [-70.58198309217171, 41.88969796065188], [-70.58196568731307, 41.889009080364104], [-70.58203306994254, 41.888679615316995], [-70.58205869977591, 41.88846304122685], [-70.58212864619719, 41.88827296225181], [-70.58209166165865, 41.88805713377843], [-70.58202588791185, 41.887788048350245], [-70.58203688418924, 41.88759418488121], [-70.58186558085445, 41.88737150134509], [-70.58170771811294, 41.88712602030437], [-70.58158224951889, 41.886956504491664], [-70.58151534389485, 41.886696449453034], [-70.58153581829681, 41.886313311087385], [-70.58017064316962, 41.88657739031904], [-70.57853104619791, 41.8871020619292], [-70.57682586412558, 41.88742998091855], [-70.5755691147549, 41.88738944146213], [-70.57538984785512, 41.88750469318535], [-70.57521065910875, 41.887989165186326], [-70.57512438401056, 41.88850018410562], [-70.57477264327116, 41.88897138339416], [-70.57420853181547, 41.88912402622603], [-70.57394970382592, 41.88930985149916], [-70.57372405870463, 41.8895554057341], [-70.57316658400225, 41.88980759620199], [-70.57277502453957, 41.89015270036105], [-70.57213127294234, 41.890557532558475], [-70.5714344291152, 41.890935820645915], [-70.57053185042676, 41.89081636082319], [-70.56993455610277, 41.89088936388898], [-70.56945671884695, 41.89103536910155], [-70.56926424222091, 41.89118367169806], [-70.56869333950165, 41.89093225769856], [-70.56825129022843, 41.89089910382161], [-70.5676324228629, 41.890843848659266], [-70.56745560297395, 41.890843848659266], [-70.56722352771186, 41.89089910382161], [-70.56710196409436, 41.89105382176673], [-70.5672345787865, 41.89138535828995], [-70.5672345787865, 41.891628484470374], [-70.56679252951328, 41.89210368765025], [-70.56665991482116, 41.892379967565674], [-70.5664278404574, 41.89276676011438], [-70.56614050802555, 41.89296568265122], [-70.565937821148, 41.893062971752755], [-70.56580776845107, 41.89307019704582], [-70.56546085885125, 41.89300712331957], [-70.56486961737566, 41.89272255554216], [-70.56447177419757, 41.89242417304365], [-70.56414023746723, 41.89223630189129], [-70.56374239339085, 41.892169994805215], [-70.56314562727624, 41.89200422578572], [-70.56249360578852, 41.89198212424268], [-70.56223942747887, 41.89251258257049], [-70.56189683967392, 41.892777811754165], [-70.56186382928217, 41.8928096426327], [-70.5612168949539, 41.89293902959761], [-70.56036947551884, 41.893645212064875], [-70.55992336496222, 41.893623843308696], [-70.55950933863429, 41.89375233391454], [-70.55928090963394, 41.89389510147131], [-70.55928090963394, 41.894180636964855], [-70.55925235668263, 41.89448044959781], [-70.55930946438188, 41.894808815505584], [-70.55929518655877, 41.89509434958904], [-70.5591666960321, 41.89525139439563], [-70.5588097765051, 41.895522653001436], [-70.55825298272568, 41.89582246535278], [-70.55811021437589, 41.89632215192924], [-70.55808166142458, 41.89683611582868], [-70.55832436645144, 41.896993160364346], [-70.55870983982804, 41.89703599056445], [-70.55900965165581, 41.89712165087847], [-70.55930946438188, 41.897307248945765], [-70.55906675845674, 41.89767844479953], [-70.5585956253279, 41.89803536488971], [-70.55829581260181, 41.89837800678095], [-70.55812449219903, 41.89882058701422], [-70.55793889397312, 41.899320273534954], [-70.55758197534445, 41.899448765384655], [-70.55726788569355, 41.89923461282688], [-70.5569823498923, 41.899077569122674], [-70.55669681498934, 41.898977632019], [-70.55619712801087, 41.898906247609084], [-70.55581165463424, 41.898906247609084], [-70.55516920020428, 41.898906247609084], [-70.55484083452691, 41.898792034125705], [-70.55409844252159, 41.89887769409021], [-70.55334177359147, 41.898934801783774], [-70.55251372093562, 41.899391658150705], [-70.55205686473158, 41.89960580884458], [-70.5515429008283, 41.899662916555656], [-70.55072912509723, 41.89957725563851], [-70.55024371414527, 41.89972002354702], [-70.54998673309193, 41.89993417447694], [-70.54964409048975, 41.90001983491531], [-70.54917295646258, 41.90004838926071], [-70.54854477805912, 41.90003411208958], [-70.54828779700578, 41.90016260317156], [-70.54830207393061, 41.90037675529174], [-70.54854477805912, 41.900648013523885], [-70.54907492331562, 41.900831897704684], [-70.54947467271873, 41.90088900498789], [-70.54995056512196, 41.901117433609905], [-70.55054067202536, 41.901326826018476], [-70.55086427842836, 41.90159332639952], [-70.55105463592865, 41.90201211142048], [-70.5511659937862, 41.90225338857854], [-70.55119454853414, 41.90263886169239], [-70.5511517168614, 41.90303861098745], [-70.5511659937862, 41.90332414638518], [-70.55126500699515, 41.90386148386349], [-70.55111590013271, 41.90442205666936], [-70.55067951563568, 41.90474207241722], [-70.55035949979886, 41.905003903931664], [-70.55002008843674, 41.90515906306381], [-70.54984553409895, 41.9054596839375], [-70.5497582573792, 41.90574091029524], [-70.54931217467035, 41.905934859085455], [-70.54881760449574, 41.90626457208064], [-70.54820666655922, 41.90645852061713], [-70.54786725429878, 41.90699188123582], [-70.54783816325663, 41.9076125182387], [-70.54780907041784, 41.90816527228292], [-70.54788665072239, 41.909008950660734], [-70.54792920481573, 41.9091062173275], [-70.54792543997635, 41.9098351727716], [-70.54801271759443, 41.9107467334155], [-70.54808059968718, 41.911328579859635], [-70.54831333880426, 41.911803755446044], [-70.54839091731219, 41.91229832529441], [-70.54838122089703, 41.912841381730686], [-70.54822606118621, 41.91379173157638], [-70.5480321122214, 41.914199024333065], [-70.54813878446646, 41.914356123762964], [-70.54832303521944, 41.91452097978325], [-70.54869153852202, 41.91460825707459], [-70.54885639464803, 41.914802205663705], [-70.54878851345359, 41.91506403736294], [-70.5485945644888, 41.91535496028772], [-70.5483715226852, 41.915859228050174], [-70.54820666655922, 41.91613075606923], [-70.54812908625463, 41.91667381332077], [-70.54833273343124, 41.91705201355234], [-70.54853637970953, 41.917362332365265], [-70.54842970746448, 41.91754658350915], [-70.54810969162766, 41.9177114406466], [-70.54780640062481, 41.91805112739902], [-70.5476791228238, 41.91851384081521], [-70.54751193556962, 41.91886581369932], [-70.54724795574191, 41.91927938266625], [-70.54712476527543, 41.91958735852648], [-70.5471071663807, 41.919816141350644], [-70.54716876116478, 41.92002732461377], [-70.54718636005951, 41.92024730819096], [-70.54708956748597, 41.92052008618522], [-70.54686958534425, 41.92114483803228], [-70.54683438755478, 41.921496811109684], [-70.54673759498122, 41.92183998412707], [-70.54642081936764, 41.92225355320192], [-70.54584006392635, 41.92255273005546], [-70.54525930848507, 41.92280791024632], [-70.54453776458087, 41.923089488609506], [-70.54422978886382, 41.92330947098736], [-70.54356103984718, 41.92398526008069], [-70.54317386955297, 41.924328433081975], [-70.54288349183234, 41.924469222739795], [-70.54248752253994, 41.92452201794592], [-70.54223234260874, 41.9244604223092], [-70.5420035596722, 41.9244164268216], [-70.54157239348864, 41.924680405975664], [-70.54133481065556, 41.925173168373995], [-70.5410884306209, 41.925569137345825], [-70.54032288992903, 41.92622908663186], [-70.53987412395244, 41.92640507275719], [-70.53961894402126, 41.92641387158288], [-70.53934616429702, 41.926501865788055], [-70.53922089872223, 41.926528394554445], [-70.53906743413236, 41.9265608950017], [-70.53812079757078, 41.92717342388133], [-70.53667299989536, 41.92750753177038], [-70.53494677838077, 41.9276745847246], [-70.53422288089052, 41.927229108762404], [-70.53333192730017, 41.926004048864876], [-70.53288645095415, 41.925168781240444], [-70.53238528984029, 41.92466762076375], [-70.5308261226292, 41.92372098396413], [-70.52937832585208, 41.92299708503701], [-70.52742936616448, 41.92266297758912], [-70.52614862279255, 41.92260729340136], [-70.52486787852231, 41.922551609165005], [-70.52436671740844, 41.922551609165005], [-70.52392124106242, 41.922217502058054], [-70.52342007994858, 41.92177202542207], [-70.52291891883472, 41.9211038119891], [-70.5220836509105, 41.92037991277951], [-70.52174954410013, 41.919823066838596], [-70.52096996004543, 41.9196003292406], [-70.52007900735339, 41.91993443668286], [-70.51857552580844, 41.92021285877223], [-70.51740615107387, 41.920825389108295], [-70.51662656701916, 41.921437918243456], [-70.51645951361398, 41.92177202609049], [-70.51612540680362, 41.922941401140825], [-70.51584698386277, 41.92516878190881], [-70.51556856092193, 41.92778595489988], [-70.51512308457592, 41.93018039003394], [-70.51434350141952, 41.931516818269316], [-70.51434350141952, 41.932296401897666], [-70.51284001987457, 41.93346577718445], [-70.51066832201396, 41.935359050268154], [-70.50838525731264, 41.93641705726045], [-70.50727156554926, 41.937196640469075], [-70.5055453458313, 41.93897854524483], [-70.50471007790708, 41.9413172952923], [-70.50404186338805, 41.94254235509881], [-70.50287248865347, 41.94365604508821], [-70.5001439467078, 41.946106164212324], [-70.4979462066871, 41.94846490885859], [-70.49532879802018, 41.95048745058607], [-70.4935442021818, 41.95203410101534], [-70.49152165969264, 41.95227204709054], [-70.48938014432726, 41.9506064239491], [-70.48676273566034, 41.949773612425524], [-70.4835504635106, 41.950011558253756], [-70.47914845900527, 41.95167718157319], [-70.47676899609083, 41.953342804793856], [-70.4743895358713, 41.955722266904445], [-70.47177212720436, 41.95774480882565], [-70.4616594147586, 41.956436105249864], [-70.45368821767825, 41.956436105249864], [-70.45011902510316, 41.95774480949363], [-70.44262372042603, 41.96095708279978], [-70.4402442593082, 41.962860651928985], [-70.43572328192667, 41.96892827907399], [-70.43048846638945, 41.97820817907877], [-70.42846592390029, 41.98368094018871], [-70.42501570420146, 41.990343432445336], [-70.42311213548683, 41.99379365165925], [-70.42097062012148, 41.99664900589178], [-70.42001883531499, 41.99914743965291], [-70.41978089046086, 42.00378738940927], [-70.41930499715932, 42.01099715828899], [-70.41775834887002, 42.01765965031375], [-70.41549785973011, 42.02515495357246], [-70.41133380277388, 42.03419690762471], [-70.41014407131665, 42.0363384225452], [-70.38935947300855, 42.04949684553276], [-70.35257799232784, 42.072562762527774], [-70.3453589627197, 42.076970170290444], [-70.342699320658, 42.08335331166438], [-70.34125551419739, 42.08730478041221], [-70.3413315044839, 42.08981244336885], [-70.3413315044839, 42.09216812616185], [-70.33927978112106, 42.10789801162391], [-70.33835702088143, 42.12011242420376], [-70.35727347823311, 42.12151071853422], [-70.39628919568787, 42.124381236808794], [-70.4353083950127, 42.127238514061055], [-70.47433127204027, 42.13008240616332], [-70.51335744049506, 42.132913203356566], [-70.55238709081989, 42.13573061960032], [-70.59142022660805, 42.13853494509348], [-70.60964815404053, 42.13983817209033], [-70.609768540865, 42.14003523023603], [-70.61027292693073, 42.14082346068271], [-70.61079550388098, 42.14160505438096], [-70.61133647114168, 42.142379723162286], [-70.61189543525082, 42.14314718353275], [-70.61247240159824, 42.14390728588918], [-70.61306697941681, 42.144659746755266], [-70.61367936453927, 42.145404419871916], [-70.61430897485728, 42.14614101778304], [-70.6149558121675, 42.146869252376845], [-70.61561967973887, 42.14758912727181], [-70.61630019309246, 42.14830020451139], [-70.61699754446776, 42.14900220333434], [-70.61771096221189, 42.14969511938037], [-70.61844082900718, 42.15037866523616], [-70.61918656993187, 42.15105269735093], [-70.61994779152386, 42.15171678713428], [-70.6207246923108, 42.152371076752274], [-70.6215168833222, 42.1530149884459], [-70.62232397468922, 42.15364866970983], [-70.62314577866395, 42.15427154213403], [-70.62398229255147, 42.15488389639211], [-70.62418687128101, 42.155030502011854], [-70.62439416112609, 42.155247820269146], [-70.62460474150005, 42.15558769216998], [-70.62510912487083, 42.1563758701663], [-70.6256318985521, 42.15715741503588], [-70.6261728640162, 42.157932037349255], [-70.62673202395807, 42.158699593523494], [-70.62730918344327, 42.15945965297624], [-70.62736279489944, 42.15952891882409], [-70.62776924483626, 42.16008361954366], [-70.62834640342315, 42.16084366370423], [-70.6289411743795, 42.1615962075815], [-70.6295535612986, 42.162340824618376], [-70.63018336475439, 42.16307736727246], [-70.63027936321723, 42.16318709237557], [-70.63075878240626, 42.16393543413148], [-70.63128155429091, 42.16471702812752], [-70.6318227128928, 42.16549155856575], [-70.63238187283466, 42.16625916552971], [-70.63280632141651, 42.166821007483705], [-70.6331665144044, 42.16740660021723], [-70.6336708986735, 42.168194775483556], [-70.63386328546801, 42.168486199598895], [-70.63395231839415, 42.16862039103774], [-70.6342455419776, 42.16917083615175], [-70.63469379860942, 42.169977706189265], [-70.63516102316848, 42.17077851862109], [-70.63564702072033, 42.171573131200894], [-70.63615140588774, 42.17236139569592], [-70.63667437180851, 42.17314288426017], [-70.63721553130871, 42.173917599141575], [-70.63777488438834, 42.17468510452735], [-70.63835204207692, 42.17544511441362], [-70.6389470079677, 42.17619762773887], [-70.6392042342611, 42.176513344515016], [-70.6392648130506, 42.176688261096096], [-70.63957777890906, 42.17752972886391], [-70.63991010166528, 42.17836686901131], [-70.64026235803763, 42.17919967704978], [-70.64063377637332, 42.18002786690485], [-70.6410249360857, 42.18085100806406], [-70.64143506192866, 42.181668813155014], [-70.64186454466935, 42.18248142283875], [-70.6423128021995, 42.18328812173912], [-70.64278021899804, 42.184088908085116], [-70.64326621654989, 42.184883639654906], [-70.64377079665172, 42.1856718813565], [-70.64429376167416, 42.186453350544156], [-70.64483511431214, 42.18722804214386], [-70.64539446649347, 42.18799552975316], [-70.64572988574247, 42.188437132175444], [-70.6455945949691, 42.18919639904857], [-70.64546085289129, 42.190063751863384], [-70.64534743340015, 42.19093267617161], [-70.64525433919061, 42.191802883719475], [-70.64518175890892, 42.19267423069384], [-70.64513201559838, 42.193506272587754], [-70.64513124304725, 42.19351188578963], [-70.64501782445441, 42.194380762030484], [-70.64492472665164, 42.195251065859324], [-70.64485214726825, 42.196122364630654], [-70.644800082711, 42.19699437080338], [-70.64476834074046, 42.19786708501322], [-70.64475711539265, 42.19874007333122], [-70.64476659800879, 42.19961305092002], [-70.64479640590655, 42.20048572829961], [-70.64484653459435, 42.20135796041125], [-70.64491737214439, 42.202229318721386], [-70.64500853407773, 42.20309965753344], [-70.64512021173556, 42.203968689421444], [-70.6452522101834, 42.20483612564434], [-70.64540453211625, 42.20570182253737], [-70.6455771748391, 42.206565348987844], [-70.64573782145969, 42.20728252384748], [-70.64574498282914, 42.20795091067112], [-70.64577478982858, 42.208823615947715], [-70.64582511165416, 42.209695876674544], [-70.6458959492042, 42.21056726304388], [-70.64598711113754, 42.211437630043925], [-70.64609878879536, 42.212306689621165], [-70.64623078724321, 42.21317415440333], [-70.64638310917603, 42.21403973703386], [-70.64655575369555, 42.21490329321534], [-70.64674872170005, 42.21576439124414], [-70.64696181825512, 42.216622888180645], [-70.64719504156413, 42.21747849605891], [-70.64744839611865, 42.218330926263114], [-70.64772168518765, 42.219179892853504], [-70.64801490966943, 42.22002525160683], [-70.6483278755279, 42.22086671328097], [-70.64866058455966, 42.22170385094239], [-70.64901303586645, 42.22253665811019], [-70.6493848395794, 42.22336470854282], [-70.64977600019009, 42.22418785541314], [-70.65018651410526, 42.22500581486666], [-70.65061618998374, 42.22581829507993], [-70.65106502692726, 42.22662501222551], [-70.65153263776187, 42.227425820182816], [-70.65201883024815, 42.228220578158286], [-70.65252379572725, 42.229008708346946], [-70.65304714972018, 42.22979035600199], [-70.65358888863375, 42.230564944675194], [-70.65414862798896, 42.23133233228488], [-70.65472636688753, 42.23209251909331], [-70.65532191398829, 42.23284492869248], [-70.65593507345851, 42.233589707021956], [-70.656565457226, 42.23432627703227], [-70.65721326202177, 42.23505449800774], [-70.65787809887536, 42.23577422192006], [-70.6585595788162, 42.2364853093903], [-70.65925770453924, 42.23718732707509], [-70.65997228290671, 42.23788027727219], [-70.6607031189842, 42.23856387097455], [-70.66144982559783, 42.239237819183785], [-70.66221220960979, 42.23990198254693], [-70.66299027012175, 42.240556071411476], [-70.66378342861874, 42.241200086090494], [-70.66459168420235, 42.24183373959695], [-70.66541464790213, 42.2424567436203], [-70.66625232241299, 42.24306895616105], [-70.66710393248886, 42.2436702325597], [-70.66796986440531, 42.244260287839474], [-70.66884934471285, 42.24483911899005], [-70.66974237251323, 42.24540643970622], [-70.670119791595, 42.24563782522444], [-70.67080146647024, 42.246210890915115], [-70.67159462317058, 42.246854848539805], [-70.6724028787542, 42.24748844458995], [-70.6732260373884, 42.24811139144581], [-70.67406371100095, 42.24872369341243], [-70.6749155142146, 42.24932491525327], [-70.67555596360484, 42.24976148553025], [-70.67630267111677, 42.250411731201865], [-70.67708073252707, 42.25106585407346], [-70.67787408326349, 42.25170990443333], [-70.67868253198492, 42.25234345105379], [-70.6795056897208, 42.252966494251204], [-70.6798126575281, 42.253190807923936], [-70.67987091507091, 42.253644604552726], [-70.68000310665653, 42.254512071849106], [-70.68015542948768, 42.25537765687135], [-70.68032826804331, 42.256241075791074], [-70.68052142918559, 42.257102181094744], [-70.68073452484234, 42.257960687649266], [-70.68096794308578, 42.25881630435328], [-70.6812214916764, 42.25966874942863], [-70.68149497298485, 42.26051772980965], [-70.68178839150274, 42.261363106021726], [-70.68210155049898, 42.262204588347466], [-70.68243445266856, 42.263041748138754], [-70.68278709711312, 42.26387458157848], [-70.68315909486218, 42.264702660710064], [-70.68355064174843, 42.26552569520915], [-70.68396134969969, 42.266343689261504], [-70.68439141275208, 42.2671560667087], [-70.68484044373169, 42.26796282577319], [-70.68530824770409, 42.26876368016232], [-70.68579482826257, 42.269558344926004], [-70.68630018091554, 42.27034653047361], [-70.68682392028575, 42.27112809346679], [-70.68736585413373, 42.271902745663866], [-70.68792597976451, 42.27267020282314], [-70.6885041076336, 42.27343031830803], [-70.68910004011161, 42.274182805235796], [-70.68971358585742, 42.27492738005822], [-70.69034455173319, 42.27566403906736]]]}, "properties": {"huc12": "010900020107", "name": "Massachusetts Bay-Cape Cod Bay", "areasqkm": 513.76, "states": "MA"}}]}