{
  "type": "FeatureCollection",
  "features": [
    {
      "type": "Feature",
      "geometry": {
        "type": "MultiPolygon",
        "coordinates": [
          [
            [
              [
                501000.0,
                3498000.0
              ],
              [
                502000.0,
                3498000.0
              ],
              [
                502000.0,
                3499000.0
              ],
              [
                501000.0,
                3499000.0
              ],
              [
                501000.0,
                3498000.0
              ]
            ]
          ]
        ]
      },
      "properties": {
        "id": "S1"
      }
    },
    {
      "type": "Feature",
      "geometry": {
        "type": "MultiPolygon",
        "coordinates": [
          [
            [
              [
                502000.0,
                3499000.0
              ],
              [
                503000.0,
                3499000.0
              ],
              [
                504000.0,
                3499000.0
              ],
              [
                505000.0,
                3499000.0
              ],
              [
                505000.0,
                3498000.0
              ],
              [
                505000.0,
                3497000.0
              ],
              [
                504000.0,
                3497000.0
              ],
              [
                502000.0,
                3499000.0
              ]
            ]
          ]
        ]
      },
      "properties": {
        "id": "S2"
      }
    },
    {
      "type": "Feature",
      "geometry": {
        "type": "MultiPolygon",
        "coordinates": [
          [
            [
              [
                502000.0,
                3497000.0
              ],
              [
                502000.0,
                3498000.0
              ],
              [
                501000.0,
                3498000.0
              ],
              [
                501000.0,
                3497000.0
              ],
              [
                501000.0,
                3496000.0
              ],
              [
                502000.0,
                3496000.0
              ],
              [
                502000.0,
                3495000.0
              ],
              [
                503000.0,
                3495000.0
              ],
              [
                502000.0,
                3497000.0
              ]
            ],
            [
              [
                503000.0,
                3496000.0
              ],
              [
                503000.0,
                3497000.0
              ],
              [
                502000.0,
                3497000.0
              ],
              [
                503000.0,
                3496000.0
              ]
            ],
            [
              [
                505000.0,
                3496000.0
              ],
              [
                505000.0,
                3497000.0
              ],
              [
                504000.0,
                3497000.0
              ],
              [
                504000.0,
                3496000.0
              ],
              [
                503000.0,
                3496000.0
              ],
              [
                505000.0,
                3496000.0
              ]
            ],
            [
              [
                504000.0,
                3494000.0
              ],
              [
                505000.0,
                3494000.0
              ],
              [
                505000.0,
                3495000.0
              ],
              [
                504000.0,
                3494000.0
              ]
            ]
          ]
        ]
      },
      "properties": {
        "id": "S3"
      }
    }
  ]
}