{
  "type": "FeatureCollection",
  "features": [
    {
      "type": "Feature",
      "geometry": {
        "type": "Point",
        "coordinates": [
          -6694059.846049844,
          6630798.401355872
        ]
      },
      "properties": {
        "id": "M1",
        "row": 221,
        "col": 402,
        "accumulation": 112286.0
      }
    },
    {
      "type": "Feature",
      "geometry": {
        "type": "Point",
        "coordinates": [
          -6705660.6384165855,
          6612890.38207129
        ]
      },
      "properties": {
        "id": "M2",
        "row": 380,
        "col": 299,
        "accumulation": 69939.0
      }
    },
    {
      "type": "Feature",
      "geometry": {
        "type": "Point",
        "coordinates": [
          -6715346.736897554,
          6588675.135868869
        ]
      },
      "properties": {
        "id": "M3",
        "row": 595,
        "col": 213,
        "accumulation": 13132.0
      }
    },
    {
      "type": "Feature",
      "geometry": {
        "type": "Point",
        "coordinates": [
          -6685612.667142022,
          6655351.534714607
        ]
      },
      "properties": {
        "id": "T1",
        "row": 3,
        "col": 477,
        "accumulation": 37974.0
      }
    },
    {
      "type": "Feature",
      "geometry": {
        "type": "Point",
        "coordinates": [
          -6689216.796809359,
          6650959.0016825395
        ]
      },
      "properties": {
        "id": "T2",
        "row": 42,
        "col": 445,
        "accumulation": 37326.0
      }
    },
    {
      "type": "Feature",
      "geometry": {
        "type": "Point",
        "coordinates": [
          -6685950.554298336,
          6646341.2105462635
        ]
      },
      "properties": {
        "id": "T3",
        "row": 83,
        "col": 474,
        "accumulation": 36540.0
      }
    }
  ]
}