{
  "type": "FeatureCollection",
  "features": [
    {
      "type": "Feature",
      "geometry": {
        "type": "Polygon",
        "coordinates": [
          [
            [
              -6700159.526999498,
              6603353.549456989
            ],
            [
              -6703701.55124616,
              6617083.946734489
            ],
            [
              -6683279.56615961,
              6613718.850230173
            ],
            [
              -6685736.146412338,
              6606263.414812008
            ],
            [
              -6684198.549031904,
              6601576.521592131
            ],
            [
              -6700159.526999498,
              6603353.549456989
            ]
          ]
        ]
      },
      "properties": {
        "station_id": "station_01"
      }
    },
    {
      "type": "Feature",
      "geometry": {
        "type": "Polygon",
        "coordinates": [
          [
            [
              -6693240.347167273,
              6628113.351257225
            ],
            [
              -6676516.447900172,
              6638988.934069159
            ],
            [
              -6677052.859182096,
              6633839.385762688
            ],
            [
              -6677165.4882342005,
              6632825.72429375
            ],
            [
              -6677278.117286305,
              6632149.949981123
            ],
            [
              -6677503.375390514,
              6631248.91756429
            ],
            [
              -6679774.230747717,
              6624357.1356081255
            ],
            [
              -6693240.347167273,
              6628113.351257225
            ]
          ]
        ]
      },
      "properties": {
        "station_id": "station_02"
      }
    },
    {
      "type": "Feature",
      "geometry": {
        "type": "Polygon",
        "coordinates": [
          [
            [
              -6693240.347167273,
              6628113.351257225
            ],
            [
              -6703024.510097015,
              6625619.649585272
            ],
            [
              -6706556.149883239,
              6637932.47932596
            ],
            [
              -6701380.734436623,
              6640259.241732633
            ],
            [
              -6700704.960123997,
              6639921.354576319
            ],
            [
              -6700592.331071893,
              6639808.725524215
            ],
            [
              -6696762.943300347,
              6635190.934387939
            ],
            [
              -6695557.35006175,
              6633336.175559328
            ],
            [
              -6689892.571121985,
              6651409.517890957
            ],
            [
              -6685725.296194127,
              6655351.534714607
            ],
            [
              -6685612.667142022,
              6655351.534714607
            ],
            [
              -6676489.713921575,
              6639358.209315798
            ],
            [
              -6676489.713921575,
              6639245.580263694
            ],
            [
              -6676516.447900172,
              6638988.934069159
            ],
            [
              -6693240.347167273,
              6628113.351257225
            ]
          ]
        ]
      },
      "properties": {
        "station_id": "station_03"
      }
    },
    {
      "type": "Feature",
      "geometry": {
        "type": "Polygon",
        "coordinates": [
          [
            [
              -6708066.447289174,
              6616206.3322163625
            ],
            [
              -6724076.816890317,
              6592766.93907467
            ],
            [
              -6728194.497995907,
              6617546.55572796
            ],
            [
              -6708066.447289174,
              6616206.3322163625
            ]
          ]
        ]
      },
      "properties": {
        "station_id": "station_04"
      }
    },
    {
      "type": "Feature",
      "geometry": {
        "type": "Polygon",
        "coordinates": [
          [
            [
              -6700531.340047498,
              6597383.7970769685
            ],
            [
              -6695112.419485695,
              6589455.315183745
            ],
            [
              -6720562.554111123,
              6579029.555389094
            ],
            [
              -6722442.367180125,
              6582931.054211549
            ],
            [
              -6723027.538244131,
              6586452.530078873
            ],
            [
              -6700531.340047498,
              6597383.7970769685
            ]
          ]
        ]
      },
      "properties": {
        "station_id": "station_05"
      }
    },
    {
      "type": "Feature",
      "geometry": {
        "type": "Polygon",
        "coordinates": [
          [
            [
              -6703701.55124616,
              6617083.946734489
            ],
            [
              -6704070.964455105,
              6617503.9658452505
            ],
            [
              -6703024.510097015,
              6625619.649585272
            ],
            [
              -6693240.347167273,
              6628113.351257225
            ],
            [
              -6679774.230747717,
              6624357.1356081255
            ],
            [
              -6683279.56615961,
              6613718.850230173
            ],
            [
              -6703701.55124616,
              6617083.946734489
            ]
          ]
        ]
      },
      "properties": {
        "station_id": "station_06"
      }
    },
    {
      "type": "Feature",
      "geometry": {
        "type": "Polygon",
        "coordinates": [
          [
            [
              -6695112.419485695,
              6589455.315183745
            ],
            [
              -6700531.340047498,
              6597383.7970769685
            ],
            [
              -6700159.526999498,
              6603353.549456989
            ],
            [
              -6684198.549031904,
              6601576.521592131
            ],
            [
              -6683697.97325625,
              6600050.670131401
            ],
            [
              -6688315.764392525,
              6592842.410796727
            ],
            [
              -6692838.626456131,
              6587102.872388526
            ],
            [
              -6695112.419485695,
              6589455.315183745
            ]
          ]
        ]
      },
      "properties": {
        "station_id": "station_07"
      }
    },
    {
      "type": "Feature",
      "geometry": {
        "type": "Polygon",
        "coordinates": [
          [
            [
              -6703024.510097015,
              6625619.649585272
            ],
            [
              -6704070.964455105,
              6617503.9658452505
            ],
            [
              -6708066.447289174,
              6616206.3322163625
            ],
            [
              -6728194.497995907,
              6617546.55572796
            ],
            [
              -6728749.594097964,
              6620887.044770694
            ],
            [
              -6728749.594097964,
              6621562.819083321
            ],
            [
              -6728524.335993756,
              6627870.0460011605
            ],
            [
              -6728186.448837443,
              6628207.933157474
            ],
            [
              -6706556.149883239,
              6637932.47932596
            ],
            [
              -6703024.510097015,
              6625619.649585272
            ]
          ]
        ]
      },
      "properties": {
        "station_id": "station_08"
      }
    },
    {
      "type": "Feature",
      "geometry": {
        "type": "Polygon",
        "coordinates": [
          [
            [
              -6708066.447289174,
              6616206.3322163625
            ],
            [
              -6704070.964455105,
              6617503.9658452505
            ],
            [
              -6703701.55124616,
              6617083.946734489
            ],
            [
              -6700159.526999498,
              6603353.549456989
            ],
            [
              -6700531.340047498,
              6597383.7970769685
            ],
            [
              -6723027.538244131,
              6586452.530078873
            ],
            [
              -6724076.816890317,
              6592766.93907467
            ],
            [
              -6708066.447289174,
              6616206.3322163625
            ]
          ]
        ]
      },
      "properties": {
        "station_id": "station_09"
      }
    },
    {
      "type": "Feature",
      "geometry": {
        "type": "Polygon",
        "coordinates": [
          [
            [
              -6695112.419485695,
              6589455.315183745
            ],
            [
              -6692838.626456131,
              6587102.872388526
            ],
            [
              -6707575.332302359,
              6568401.906490097
            ],
            [
              -6708476.3647191925,
              6567726.13217747
            ],
            [
              -6709264.768083923,
              6567500.874073262
            ],
            [
              -6711629.978178113,
              6567050.357864845
            ],
            [
              -6711967.865334426,
              6567050.357864845
            ],
            [
              -6713544.672063886,
              6567275.6159690535
            ],
            [
              -6716022.51121018,
              6569753.455115348
            ],
            [
              -6716473.027418598,
              6570541.858480078
            ],
            [
              -6720562.554111123,
              6579029.555389094
            ],
            [
              -6695112.419485695,
              6589455.315183745
            ]
          ]
        ]
      },
      "properties": {
        "station_id": "station_10"
      }
    }
  ]
}