{
  "type": "FeatureCollection",
  "features": [
    {
      "type": "Feature",
      "geometry": {
        "type": "Point",
        "coordinates": [
          -6693794.44971415,
          6599116.960003283
        ]
      },
      "properties": {
        "id": "station_01"
      }
    },
    {
      "type": "Feature",
      "geometry": {
        "type": "Point",
        "coordinates": [
          -6699669.908916728,
          6627263.855070169
        ]
      },
      "properties": {
        "id": "station_02"
      }
    },
    {
      "type": "Feature",
      "geometry": {
        "type": "Point",
        "coordinates": [
          -6708723.124415659,
          6583599.215687984
        ]
      },
      "properties": {
        "id": "station_03"
      }
    },
    {
      "type": "Feature",
      "geometry": {
        "type": "Point",
        "coordinates": [
          -6694511.129963309,
          6592932.109165412
        ]
      },
      "properties": {
        "id": "station_04"
      }
    },
    {
      "type": "Feature",
      "geometry": {
        "type": "Point",
        "coordinates": [
          -6707670.490054943,
          6570149.487191849
        ]
      },
      "properties": {
        "id": "station_05"
      }
    },
    {
      "type": "Feature",
      "geometry": {
        "type": "Point",
        "coordinates": [
          -6714033.93620127,
          6594100.394935076
        ]
      },
      "properties": {
        "id": "station_06"
      }
    },
    {
      "type": "Feature",
      "geometry": {
        "type": "Point",
        "coordinates": [
          -6707542.458098409,
          6580830.055515789
        ]
      },
      "properties": {
        "id": "station_07"
      }
    },
    {
      "type": "Feature",
      "geometry": {
        "type": "Point",
        "coordinates": [
          -6709005.955592452,
          6627990.953923108
        ]
      },
      "properties": {
        "id": "station_08"
      }
    },
    {
      "type": "Feature",
      "geometry": {
        "type": "Point",
        "coordinates": [
          -6697122.646039214,
          6589840.923544577
        ]
      },
      "properties": {
        "id": "station_09"
      }
    },
    {
      "type": "Feature",
      "geometry": {
        "type": "Point",
        "coordinates": [
          -6711249.423758994,
          6588078.381610231
        ]
      },
      "properties": {
        "id": "station_10"
      }
    }
  ]
}