{
  "type": "FeatureCollection",
  "features": [
    {
      "type": "Feature",
      "geometry": {
        "type": "Polygon",
        "coordinates": [
          [
            [
              -6728749.594097964,
              6640259.241732633
            ],
            [
              -6683697.97325625,
              6640259.241732633
            ],
            [
              -6683697.97325625,
              6567050.357864845
            ],
            [
              -6728749.594097964,
              6567050.357864845
            ],
            [
              -6728749.594097964,
              6640259.241732633
            ]
          ]
        ]
      },
      "properties": {
        "id": "M1",
        "area_km2": 1424.3819750920522,
        "downstream": null
      }
    },
    {
      "type": "Feature",
      "geometry": {
        "type": "Polygon",
        "coordinates": [
          [
            [
              -6722442.367180125,
              6613566.156383916
            ],
            [
              -6683697.97325625,
              6613566.156383916
            ],
            [
              -6683697.97325625,
              6567050.357864845
            ],
            [
              -6722442.367180125,
              6567050.357864845
            ],
            [
              -6722442.367180125,
              6613566.156383916
            ]
          ]
        ]
      },
      "properties": {
        "id": "M2",
        "area_km2": 887.1974329476785,
        "downstream": null
      }
    },
    {
      "type": "Feature",
      "geometry": {
        "type": "Polygon",
        "coordinates": [
          [
            [
              -6707237.445146046,
              6604443.203163468
            ],
            [
              -6683697.97325625,
              6604443.203163468
            ],
            [
              -6683697.97325625,
              6589688.797337807
            ],
            [
              -6707237.445146046,
              6589688.797337807
            ],
            [
              -6707237.445146046,
              6604443.203163468
            ]
          ]
        ]
      },
      "properties": {
        "id": "M1_T1",
        "area_km2": 176.94729681847278,
        "downstream": "M2_T1"
      }
    },
    {
      "type": "Feature",
      "geometry": {
        "type": "Polygon",
        "coordinates": [
          [
            [
              -6707237.445146046,
              6604443.203163468
            ],
            [
              -6683697.97325625,
              6604443.203163468
            ],
            [
              -6683697.97325625,
              6589688.797337807
            ],
            [
              -6707237.445146046,
              6589688.797337807
            ],
            [
              -6707237.445146046,
              6604443.203163468
            ]
          ]
        ]
      },
      "properties": {
        "id": "M2_T1",
        "area_km2": 176.94729681847278,
        "downstream": null
      }
    },
    {
      "type": "Feature",
      "geometry": {
        "type": "Polygon",
        "coordinates": [
          [
            [
              -6705097.493156064,
              6604443.203163468
            ],
            [
              -6683697.97325625,
              6604443.203163468
            ],
            [
              -6683697.97325625,
              6589688.797337807
            ],
            [
              -6705097.493156064,
              6589688.797337807
            ],
            [
              -6705097.493156064,
              6604443.203163468
            ]
          ]
        ]
      },
      "properties": {
        "id": "M1_T2",
        "area_km2": 170.0338064775116,
        "downstream": "M2_T2"
      }
    },
    {
      "type": "Feature",
      "geometry": {
        "type": "Polygon",
        "coordinates": [
          [
            [
              -6705097.493156064,
              6604443.203163468
            ],
            [
              -6683697.97325625,
              6604443.203163468
            ],
            [
              -6683697.97325625,
              6589688.797337807
            ],
            [
              -6705097.493156064,
              6589688.797337807
            ],
            [
              -6705097.493156064,
              6604443.203163468
            ]
          ]
        ]
      },
      "properties": {
        "id": "M2_T2",
        "area_km2": 170.0338064775116,
        "downstream": null
      }
    },
    {
      "type": "Feature",
      "geometry": {
        "type": "Polygon",
        "coordinates": [
          [
            [
              -6722442.367180125,
              6589125.652077286
            ],
            [
              -6706674.299885524,
              6589125.652077286
            ],
            [
              -6706674.299885524,
              6567050.357864845
            ],
            [
              -6722442.367180125,
              6567050.357864845
            ],
            [
              -6722442.367180125,
              6589125.652077286
            ]
          ]
        ]
      },
      "properties": {
        "id": "M3",
        "area_km2": 166.58340395871997,
        "downstream": null
      }
    },
    {
      "type": "Feature",
      "geometry": {
        "type": "Polygon",
        "coordinates": [
          [
            [
              -6718162.463200161,
              6640259.241732633
            ],
            [
              -6696762.943300347,
              6640259.241732633
            ],
            [
              -6696762.943300347,
              6624603.803490137
            ],
            [
              -6718162.463200161,
              6624603.803490137
            ],
            [
              -6718162.463200161,
              6640259.241732633
            ]
          ]
        ]
      },
      "properties": {
        "id": "M1_T3",
        "area_km2": 163.41207811424235,
        "downstream": null
      }
    },
    {
      "type": "Feature",
      "geometry": {
        "type": "Polygon",
        "coordinates": [
          [
            [
              -6701943.879697144,
              6604443.203163468
            ],
            [
              -6683697.97325625,
              6604443.203163468
            ],
            [
              -6683697.97325625,
              6589688.797337807
            ],
            [
              -6701943.879697144,
              6589688.797337807
            ],
            [
              -6701943.879697144,
              6604443.203163468
            ]
          ]
        ]
      },
      "properties": {
        "id": "M2_T3",
        "area_km2": 155.8389519976298,
        "downstream": null
      }
    },
    {
      "type": "Feature",
      "geometry": {
        "type": "Polygon",
        "coordinates": [
          [
            [
              -6722442.367180125,
              6587999.361556242
            ],
            [
              -6715121.478793345,
              6587999.361556242
            ],
            [
              -6715121.478793345,
              6580340.586013151
            ],
            [
              -6722442.367180125,
              6580340.586013151
            ],
            [
              -6722442.367180125,
              6587999.361556242
            ]
          ]
        ]
      },
      "properties": {
        "id": "M3_T1",
        "area_km2": 34.69430473858507,
        "downstream": null
      }
    },
    {
      "type": "Feature",
      "geometry": {
        "type": "Polygon",
        "coordinates": [
          [
            [
              -6722442.367180125,
              6587210.958191512
            ],
            [
              -6717599.31793964,
              6587210.958191512
            ],
            [
              -6717599.31793964,
              6581241.618429985
            ],
            [
              -6722442.367180125,
              6581241.618429985
            ],
            [
              -6722442.367180125,
              6587210.958191512
            ]
          ]
        ]
      },
      "properties": {
        "id": "M3_T2",
        "area_km2": 19.42119947158089,
        "downstream": null
      }
    },
    {
      "type": "Feature",
      "geometry": {
        "type": "Polygon",
        "coordinates": [
          [
            [
              -6713657.30111599,
              6580115.3279089425
            ],
            [
              -6708926.88092761,
              6580115.3279089425
            ],
            [
              -6708926.88092761,
              6572456.552365851
            ],
            [
              -6713657.30111599,
              6572456.552365851
            ],
            [
              -6713657.30111599,
              6580115.3279089425
            ]
          ]
        ]
      },
      "properties": {
        "id": "M3_T3",
        "area_km2": 14.397819333928355,
        "downstream": null
      }
    }
  ]
}